<?xml version="1.0" encoding="UTF-8"?>
<kml xmlns="http://www.opengis.net/kml/2.2">
<Document>
  <name>BZB/SIMPS/3-19-22</name>
  <open>1</open>
  <Style id="RedLine">
    <LineStyle>
      <color>ff0000f5</color>
      <width>3</width>
    </LineStyle>
  </Style>
  <Style id="BlueLine">
    <LineStyle>
      <color>ffff8000</color>
      <width>3</width>
    </LineStyle>
  </Style>
  <Style id="YellowLine">
    <LineStyle>
      <color>ff00f5f5</color>
      <width>3</width>
    </LineStyle>
  </Style>
  <Style id="OrangeLine">
    <LineStyle>
      <color>ff0080ff</color>
      <width>3</width>
    </LineStyle>
  </Style>
  <Style id="GreenLine">
    <LineStyle>
      <color>ff00d600</color>
      <width>3</width>
    </LineStyle>
  </Style>
  <Style id="BlackLine">
    <LineStyle>
      <color>ff000000</color>
      <width>3</width>
    </LineStyle>
  </Style>
  <Style id="WhiteLine">
    <LineStyle>
      <color>ffffffff</color>
      <width>2</width>
    </LineStyle>
  </Style>
  <Style id="WhiteLabelColorWithNoIcon">
    <LabelStyle>
      <color>ffffffff</color>
    </LabelStyle>
    <IconStyle>
      <color>00000000</color>
    </IconStyle>
  </Style>
  <LookAt>
    <longitude>-117.8184483333</longitude>
    <latitude>35.3473733333</latitude>
    <altitude>1507.2360000000</altitude>
    <range>6028.9440000000</range>
    <tilt>83.0000000000</tilt>
    <heading>0.0000000000</heading>
    <altitudeMode>relativeToGround</altitudeMode>
  </LookAt>
  <Placemark>
    <name>Motor Burn</name>
    <styleUrl>#RedLine</styleUrl>
    <MultiGeometry>
      <LineString>
        <altitudeMode>absolute</altitudeMode>
        <coordinates>
          -117.8090966667,35.3469633333,629.1072000000
          -117.8090966667,35.3469633333,628.8024000000
          -117.8090966667,35.3469633333,628.4976000000
          -117.8090950000,35.3469616667,628.4976000000
          -117.8090950000,35.3469633333,629.4120000000
          -117.8090950000,35.3469616667,631.5456000000
          -117.8090950000,35.3469616667,634.8984000000
          -117.8091016667,35.3469633333,652.8816000000
          -117.8091066667,35.3469633333,661.4160000000
          -117.8091116667,35.3469666667,671.4744000000
          -117.8091183333,35.3469700000,682.7520000000
          -117.8091283333,35.3469750000,695.2488000000
          -117.8091416667,35.3469816667,708.9648000000
          -117.8091583333,35.3469883333,724.2048000000
          -117.8091800000,35.3469966667,740.6640000000
          -117.8092016667,35.3470033333,758.6472000000
          -117.8092266667,35.3470100000,777.8496000000
          -117.8092516667,35.3470183333,798.5760000000
          -117.8092800000,35.3470266667,820.5216000000
          -117.8093100000,35.3470350000,843.9912000000
          -117.8093450000,35.3470450000,868.6800000000
          -117.8093850000,35.3470533333,894.5880000000
          -117.8094283333,35.3470616667,922.0200000000
          -117.8094766667,35.3470683333,950.6712000000
          -117.8095250000,35.3470750000,980.8464000000
          -117.8095783333,35.3470816667,1012.2408000000
          -117.8096333333,35.3470883333,1044.8544000000
          -117.8096950000,35.3470950000,1078.9920000000
          -117.8097616667,35.3471000000,1114.3488000000
          -117.8098300000,35.3471050000,1151.5344000000
          -117.8099016667,35.3471083333,1189.6344000000
          -117.8099783333,35.3471116667,1228.9536000000
          -117.8100583333,35.3471150000,1269.7968000000
          -117.8101450000,35.3471183333,1311.5544000000
          -117.8102316667,35.3471183333,1354.5312000000
          -117.8103233333,35.3471200000,1398.4224000000
        </coordinates>
      </LineString>
    </MultiGeometry>
  </Placemark>
  <Placemark>
    <name>Coast Phase</name>
    <styleUrl>#BlackLine</styleUrl>
    <MultiGeometry>
      <LineString>
        <altitudeMode>absolute</altitudeMode>
        <coordinates>
          -117.8103233333,35.3471200000,1398.4224000000
          -117.8103233333,35.3471200000,1398.4224000000
          -117.8104166667,35.3471200000,1443.2280000000
          -117.8105133333,35.3471200000,1488.0336000000
          -117.8106100000,35.3471200000,1532.5344000000
          -117.8107066667,35.3471200000,1576.7304000000
          -117.8108033333,35.3471200000,1620.6216000000
          -117.8109000000,35.3471200000,1663.9032000000
          -117.8109950000,35.3471200000,1706.8800000000
          -117.8110900000,35.3471200000,1748.9424000000
          -117.8111833333,35.3471183333,1790.7000000000
          -117.8112766667,35.3471183333,1831.8480000000
          -117.8113700000,35.3471183333,1872.0816000000
          -117.8114600000,35.3471183333,1912.3152000000
          -117.8115516667,35.3471183333,1951.6344000000
          -117.8116416667,35.3471200000,1990.6488000000
          -117.8117316667,35.3471200000,2029.0536000000
          -117.8118200000,35.3471216667,2066.8488000000
          -117.8119083333,35.3471233333,2104.3392000000
          -117.8119950000,35.3471250000,2141.2200000000
          -117.8120833333,35.3471266667,2177.4912000000
          -117.8121683333,35.3471283333,2213.4576000000
          -117.8122550000,35.3471300000,2248.8144000000
          -117.8123400000,35.3471316667,2283.5616000000
          -117.8124233333,35.3471350000,2318.0040000000
          -117.8125083333,35.3471366667,2352.1416000000
          -117.8125916667,35.3471383333,2385.3648000000
          -117.8126750000,35.3471400000,2418.2832000000
          -117.8127566667,35.3471416667,2450.8968000000
          -117.8128383333,35.3471433333,2482.9008000000
          -117.8129200000,35.3471433333,2514.2952000000
          -117.8130016667,35.3471450000,2545.3848000000
          -117.8130833333,35.3471450000,2575.8648000000
          -117.8131633333,35.3471466667,2606.0400000000
          -117.8132450000,35.3471466667,2635.6056000000
          -117.8133250000,35.3471483333,2664.5616000000
          -117.8134050000,35.3471483333,2693.2128000000
          -117.8134866667,35.3471483333,2721.5592000000
          -117.8135666667,35.3471483333,2749.2960000000
          -117.8136466667,35.3471483333,2776.4232000000
          -117.8137266667,35.3471500000,2803.2456000000
          -117.8138066667,35.3471500000,2829.4584000000
          -117.8138866667,35.3471500000,2855.3664000000
          -117.8139666667,35.3471500000,2880.9696000000
          -117.8140450000,35.3471516667,2905.9632000000
          -117.8141250000,35.3471516667,2930.3472000000
          -117.8142050000,35.3471516667,2954.4264000000
          -117.8142833333,35.3471533333,2977.8960000000
          -117.8143633333,35.3471533333,3001.0608000000
          -117.8144433333,35.3471550000,3023.9208000000
          -117.8145216667,35.3471566667,3046.1712000000
          -117.8146000000,35.3471566667,3068.1168000000
          -117.8146800000,35.3471583333,3089.4528000000
          -117.8147583333,35.3471600000,3110.7888000000
          -117.8148366667,35.3471616667,3131.2104000000
          -117.8149150000,35.3471633333,3151.3272000000
          -117.8149916667,35.3471650000,3171.1392000000
          -117.8150700000,35.3471683333,3190.6464000000
          -117.8151466667,35.3471700000,3209.5440000000
          -117.8152233333,35.3471716667,3227.8320000000
          -117.8153000000,35.3471750000,3245.8152000000
          -117.8153766667,35.3471766667,3263.4936000000
          -117.8154533333,35.3471800000,3280.5624000000
          -117.8155300000,35.3471816667,3297.6312000000
          -117.8156050000,35.3471850000,3313.7856000000
          -117.8156816667,35.3471866667,3329.9400000000
          -117.8157566667,35.3471900000,3345.4848000000
          -117.8158316667,35.3471933333,3360.4200000000
          -117.8159066667,35.3471950000,3375.0504000000
          -117.8159800000,35.3471983333,3389.6808000000
          -117.8160550000,35.3472016667,3403.3968000000
          -117.8161283333,35.3472033333,3417.1128000000
          -117.8162033333,35.3472066667,3430.2192000000
          -117.8162766667,35.3472100000,3442.7160000000
          -117.8163500000,35.3472116667,3455.2128000000
          -117.8164250000,35.3472150000,3467.1000000000
          -117.8164983333,35.3472166667,3478.3776000000
          -117.8165700000,35.3472200000,3489.6552000000
          -117.8166433333,35.3472233333,3500.3232000000
          -117.8167166667,35.3472250000,3510.3816000000
          -117.8167900000,35.3472283333,3520.4400000000
          -117.8168616667,35.3472300000,3529.8888000000
          -117.8169350000,35.3472333333,3539.0328000000
          -117.8170066667,35.3472366667,3547.5672000000
          -117.8170783333,35.3472383333,3556.1016000000
          -117.8171500000,35.3472416667,3563.7216000000
          -117.8172216667,35.3472433333,3571.3416000000
          -117.8172933333,35.3472466667,3578.3520000000
          -117.8173650000,35.3472500000,3585.0576000000
          -117.8174366667,35.3472516667,3591.4584000000
          -117.8175083333,35.3472550000,3597.2496000000
          -117.8175783333,35.3472566667,3602.7360000000
          -117.8176500000,35.3472600000,3607.9176000000
          -117.8177200000,35.3472633333,3612.4896000000
          -117.8177916667,35.3472650000,3616.7568000000
          -117.8178616667,35.3472683333,3621.0240000000
          -117.8179333333,35.3472716667,3624.3768000000
          -117.8180033333,35.3472733333,3627.7296000000
          -117.8180733333,35.3472766667,3630.1680000000
          -117.8181433333,35.3472800000,3632.6064000000
        </coordinates>
      </LineString>
    </MultiGeometry>
  </Placemark>
  <Placemark>
    <name>Drogue</name>
    <styleUrl>#YellowLine</styleUrl>
    <MultiGeometry>
      <LineString>
        <altitudeMode>absolute</altitudeMode>
        <coordinates>
          -117.8181433333,35.3472800000,3632.6064000000
          -117.8181433333,35.3472800000,3632.6064000000
          -117.8182133333,35.3472816667,3634.7400000000
          -117.8182900000,35.3472833333,3636.2640000000
          -117.8183700000,35.3472850000,3637.7880000000
          -117.8184333333,35.3472883333,3638.7024000000
          -117.8184700000,35.3472950000,3639.3120000000
          -117.8184916667,35.3473016667,3639.9216000000
          -117.8185066667,35.3473100000,3640.5312000000
          -117.8184983333,35.3473183333,3640.8360000000
          -117.8185066667,35.3473283333,3641.1408000000
          -117.8185266667,35.3473416667,3641.1408000000
          -117.8185116667,35.3473516667,3640.8360000000
          -117.8184716667,35.3473616667,3642.0552000000
          -117.8184483333,35.3473733333,3643.2744000000
          -117.8184333333,35.3473916667,3641.1408000000
          -117.8184366667,35.3473933333,3639.9216000000
          -117.8184366667,35.3473983333,3637.1784000000
          -117.8184500000,35.3474066667,3634.7400000000
          -117.8184816667,35.3474066667,3635.0448000000
          -117.8185133333,35.3474066667,3636.5688000000
          -117.8185316667,35.3474083333,3638.0928000000
          -117.8185433333,35.3474150000,3638.0928000000
          -117.8185516667,35.3474250000,3636.8736000000
          -117.8185550000,35.3474350000,3635.0448000000
          -117.8185550000,35.3474516667,3631.6920000000
          -117.8185533333,35.3474700000,3628.0344000000
          -117.8185416667,35.3474900000,3624.6816000000
          -117.8185433333,35.3475100000,3621.0240000000
          -117.8185383333,35.3475300000,3617.3664000000
          -117.8185200000,35.3475550000,3613.4040000000
          -117.8185133333,35.3475700000,3610.6608000000
          -117.8185016667,35.3475850000,3607.9176000000
          -117.8184800000,35.3476033333,3603.9552000000
          -117.8184583333,35.3476200000,3599.6880000000
          -117.8184350000,35.3476350000,3596.9448000000
          -117.8183983333,35.3476516667,3593.8968000000
          -117.8183583333,35.3476650000,3591.1536000000
          -117.8183216667,35.3476750000,3589.0200000000
          -117.8182833333,35.3476850000,3586.2768000000
          -117.8182483333,35.3476966667,3583.8384000000
          -117.8182150000,35.3477083333,3580.7904000000
          -117.8181850000,35.3477233333,3578.0472000000
          -117.8181450000,35.3477366667,3575.3040000000
          -117.8181000000,35.3477500000,3572.5608000000
          -117.8180550000,35.3477650000,3570.1224000000
          -117.8180100000,35.3477800000,3567.9888000000
          -117.8179650000,35.3477950000,3565.5504000000
          -117.8179216667,35.3478083333,3563.1120000000
          -117.8178783333,35.3478216667,3560.9784000000
          -117.8178383333,35.3478333333,3558.8448000000
          -117.8178016667,35.3478450000,3556.4064000000
          -117.8177666667,35.3478566667,3553.9680000000
          -117.8177316667,35.3478666667,3551.8344000000
          -117.8176983333,35.3478733333,3550.0056000000
          -117.8176633333,35.3478800000,3547.8720000000
          -117.8176300000,35.3478883333,3545.4336000000
          -117.8175966667,35.3478983333,3542.6904000000
          -117.8175650000,35.3479100000,3540.2520000000
          -117.8175316667,35.3479216667,3537.5088000000
          -117.8175016667,35.3479316667,3535.0704000000
          -117.8174716667,35.3479400000,3532.6320000000
          -117.8174433333,35.3479483333,3530.1936000000
          -117.8174150000,35.3479566667,3528.0600000000
          -117.8173883333,35.3479633333,3525.6216000000
          -117.8173633333,35.3479683333,3522.8784000000
          -117.8173383333,35.3479716667,3520.4400000000
          -117.8173133333,35.3479750000,3517.3920000000
          -117.8172916667,35.3479783333,3514.6488000000
          -117.8172700000,35.3479800000,3511.6008000000
          -117.8172500000,35.3479816667,3508.8576000000
          -117.8172300000,35.3479833333,3506.1144000000
          -117.8172100000,35.3479850000,3503.3712000000
          -117.8171916667,35.3479866667,3500.3232000000
          -117.8171766667,35.3479883333,3497.5800000000
          -117.8171483333,35.3479916667,3492.3984000000
          -117.8171350000,35.3479933333,3489.6552000000
          -117.8171233333,35.3479950000,3487.2168000000
          -117.8171133333,35.3480000000,3484.7784000000
          -117.8171033333,35.3480050000,3482.6448000000
          -117.8170933333,35.3480116667,3480.2064000000
          -117.8170850000,35.3480200000,3477.4632000000
          -117.8170766667,35.3480300000,3475.0248000000
          -117.8170683333,35.3480383333,3472.5864000000
          -117.8170616667,35.3480466667,3470.1480000000
          -117.8170550000,35.3480566667,3468.0144000000
          -117.8170483333,35.3480666667,3465.5760000000
          -117.8170416667,35.3480783333,3463.4424000000
          -117.8170366667,35.3480900000,3461.0040000000
          -117.8170300000,35.3481033333,3458.2608000000
          -117.8170233333,35.3481150000,3456.1272000000
          -117.8170166667,35.3481300000,3453.6888000000
          -117.8170100000,35.3481450000,3451.2504000000
          -117.8170050000,35.3481600000,3449.1168000000
          -117.8170016667,35.3481750000,3446.6784000000
          -117.8169966667,35.3481900000,3444.5448000000
          -117.8169933333,35.3482033333,3442.1064000000
          -117.8169883333,35.3482166667,3439.9728000000
          -117.8169816667,35.3482283333,3437.8392000000
          -117.8169766667,35.3482416667,3435.4008000000
          -117.8169700000,35.3482550000,3433.2672000000
          -117.8169633333,35.3482700000,3431.1336000000
          -117.8169583333,35.3482833333,3429.0000000000
          -117.8169500000,35.3482983333,3426.8664000000
          -117.8169416667,35.3483150000,3425.0376000000
          -117.8169333333,35.3483333333,3422.5992000000
          -117.8169233333,35.3483516667,3420.4656000000
          -117.8169133333,35.3483716667,3418.3320000000
          -117.8169000000,35.3483916667,3416.1984000000
          -117.8168866667,35.3484116667,3413.7600000000
          -117.8168716667,35.3484316667,3411.6264000000
          -117.8168566667,35.3484533333,3409.1880000000
          -117.8168400000,35.3484733333,3407.0544000000
          -117.8168250000,35.3484950000,3404.9208000000
          -117.8168066667,35.3485183333,3402.4824000000
          -117.8167866667,35.3485416667,3400.3488000000
          -117.8167666667,35.3485666667,3397.9104000000
          -117.8167450000,35.3485900000,3395.7768000000
          -117.8167216667,35.3486166667,3393.3384000000
          -117.8166966667,35.3486433333,3390.9000000000
          -117.8166683333,35.3486716667,3388.4616000000
          -117.8166383333,35.3486983333,3386.0232000000
          -117.8166050000,35.3487250000,3383.2800000000
          -117.8165716667,35.3487500000,3380.5368000000
          -117.8165383333,35.3487733333,3378.0984000000
          -117.8165016667,35.3487983333,3375.3552000000
          -117.8164616667,35.3488200000,3372.6120000000
          -117.8164216667,35.3488383333,3369.8688000000
          -117.8163816667,35.3488566667,3367.1256000000
          -117.8163433333,35.3488750000,3364.3824000000
          -117.8163016667,35.3488916667,3361.6392000000
          -117.8162600000,35.3489066667,3359.2008000000
          -117.8162183333,35.3489216667,3356.4576000000
          -117.8161783333,35.3489366667,3354.0192000000
          -117.8161383333,35.3489483333,3351.5808000000
          -117.8160983333,35.3489616667,3349.1424000000
          -117.8160583333,35.3489733333,3346.7040000000
          -117.8160166667,35.3489866667,3344.5704000000
          -117.8159766667,35.3489983333,3342.4368000000
          -117.8159366667,35.3490116667,3340.3032000000
          -117.8158983333,35.3490250000,3338.1696000000
          -117.8158600000,35.3490366667,3336.0360000000
          -117.8158200000,35.3490483333,3333.9024000000
          -117.8157816667,35.3490616667,3331.7688000000
          -117.8157433333,35.3490733333,3329.9400000000
          -117.8157050000,35.3490866667,3327.8064000000
          -117.8156683333,35.3491016667,3325.6728000000
          -117.8156316667,35.3491150000,3323.5392000000
          -117.8155966667,35.3491300000,3321.4056000000
          -117.8155600000,35.3491433333,3319.2720000000
          -117.8155266667,35.3491583333,3317.1384000000
          -117.8154916667,35.3491716667,3315.0048000000
          -117.8154566667,35.3491866667,3312.8712000000
          -117.8154216667,35.3492000000,3311.0424000000
          -117.8153883333,35.3492150000,3308.9088000000
          -117.8153533333,35.3492266667,3306.7752000000
          -117.8153183333,35.3492366667,3304.9464000000
          -117.8152850000,35.3492433333,3303.1176000000
          -117.8152533333,35.3492516667,3300.9840000000
          -117.8152216667,35.3492566667,3298.8504000000
          -117.8151900000,35.3492616667,3296.4120000000
          -117.8151600000,35.3492650000,3294.2784000000
          -117.8151316667,35.3492666667,3291.8400000000
          -117.8151050000,35.3492666667,3289.0968000000
          -117.8150800000,35.3492683333,3286.6584000000
          -117.8150566667,35.3492666667,3284.2200000000
          -117.8150333333,35.3492666667,3281.7816000000
          -117.8150116667,35.3492650000,3279.3432000000
          -117.8149916667,35.3492633333,3276.9048000000
          -117.8149733333,35.3492616667,3274.1616000000
          -117.8149583333,35.3492600000,3271.7232000000
          -117.8149450000,35.3492583333,3269.2848000000
          -117.8149316667,35.3492600000,3266.8464000000
          -117.8149200000,35.3492616667,3264.1032000000
          -117.8149083333,35.3492650000,3261.6648000000
          -117.8148983333,35.3492683333,3259.2264000000
          -117.8148833333,35.3492783333,3254.3496000000
          -117.8148750000,35.3492850000,3251.9112000000
          -117.8148666667,35.3492933333,3249.7776000000
          -117.8148616667,35.3493016667,3247.6440000000
          -117.8148550000,35.3493100000,3245.2056000000
          -117.8148483333,35.3493200000,3242.7672000000
          -117.8148400000,35.3493333333,3240.6336000000
          -117.8148333333,35.3493466667,3238.5000000000
          -117.8148266667,35.3493600000,3236.3664000000
          -117.8148200000,35.3493750000,3234.2328000000
          -117.8148116667,35.3493916667,3232.0992000000
          -117.8148050000,35.3494100000,3229.9656000000
          -117.8147966667,35.3494316667,3227.8320000000
          -117.8147883333,35.3494533333,3225.6984000000
          -117.8147766667,35.3494750000,3223.2600000000
          -117.8147633333,35.3494983333,3220.8216000000
          -117.8147500000,35.3495216667,3218.3832000000
          -117.8147333333,35.3495483333,3215.9448000000
          -117.8147183333,35.3495766667,3213.2016000000
          -117.8147033333,35.3496050000,3210.7632000000
          -117.8146866667,35.3496316667,3208.3248000000
          -117.8146700000,35.3496616667,3205.5816000000
          -117.8146533333,35.3496900000,3203.1432000000
          -117.8146333333,35.3497216667,3200.7048000000
          -117.8146150000,35.3497516667,3198.2664000000
          -117.8145966667,35.3497816667,3195.8280000000
          -117.8145783333,35.3498116667,3193.3896000000
          -117.8145583333,35.3498433333,3190.9512000000
          -117.8145400000,35.3498733333,3188.8176000000
          -117.8145200000,35.3499050000,3186.3792000000
          -117.8144966667,35.3499366667,3184.2456000000
          -117.8144750000,35.3499666667,3182.1120000000
          -117.8144516667,35.3499983333,3179.6736000000
          -117.8144283333,35.3500300000,3177.5400000000
          -117.8144050000,35.3500600000,3175.4064000000
          -117.8143800000,35.3500900000,3173.2728000000
          -117.8143550000,35.3501216667,3171.1392000000
          -117.8143300000,35.3501516667,3169.0056000000
          -117.8143033333,35.3501816667,3166.5672000000
          -117.8142766667,35.3502116667,3164.7384000000
          -117.8142500000,35.3502400000,3162.6048000000
          -117.8142216667,35.3502700000,3160.4712000000
          -117.8141933333,35.3502983333,3158.3376000000
          -117.8141650000,35.3503266667,3156.5088000000
          -117.8141350000,35.3503550000,3154.3752000000
          -117.8141050000,35.3503816667,3152.2416000000
          -117.8140733333,35.3504100000,3150.1080000000
          -117.8140400000,35.3504366667,3148.2792000000
          -117.8140066667,35.3504633333,3146.1456000000
          -117.8139733333,35.3504916667,3144.0120000000
          -117.8139366667,35.3505166667,3141.8784000000
          -117.8139000000,35.3505433333,3139.7448000000
          -117.8138616667,35.3505683333,3137.6112000000
          -117.8138233333,35.3505933333,3135.4776000000
          -117.8137816667,35.3506166667,3133.3440000000
          -117.8137400000,35.3506383333,3131.2104000000
          -117.8136966667,35.3506600000,3128.7720000000
          -117.8136516667,35.3506800000,3126.6384000000
          -117.8136100000,35.3506983333,3124.2000000000
          -117.8135666667,35.3507166667,3121.4568000000
          -117.8135233333,35.3507333333,3119.0184000000
          -117.8134800000,35.3507483333,3116.5800000000
          -117.8134383333,35.3507616667,3114.1416000000
          -117.8133950000,35.3507733333,3111.7032000000
          -117.8133516667,35.3507850000,3109.2648000000
          -117.8133100000,35.3507966667,3107.1312000000
          -117.8132683333,35.3508066667,3104.6928000000
          -117.8132283333,35.3508166667,3102.5592000000
          -117.8131916667,35.3508233333,3100.4256000000
          -117.8131533333,35.3508316667,3097.9872000000
          -117.8131183333,35.3508383333,3095.5488000000
          -117.8130850000,35.3508450000,3093.4152000000
          -117.8130500000,35.3508516667,3090.9768000000
          -117.8130166667,35.3508583333,3088.8432000000
          -117.8129866667,35.3508633333,3086.4048000000
          -117.8129566667,35.3508683333,3084.2712000000
          -117.8129266667,35.3508733333,3082.1376000000
          -117.8128983333,35.3508783333,3079.6992000000
          -117.8128700000,35.3508833333,3077.2608000000
          -117.8128433333,35.3508900000,3075.1272000000
          -117.8128166667,35.3508933333,3072.6888000000
          -117.8127900000,35.3508983333,3070.5552000000
          -117.8127650000,35.3509016667,3068.4216000000
          -117.8127383333,35.3509083333,3066.2880000000
          -117.8127150000,35.3509116667,3063.8496000000
          -117.8126933333,35.3509166667,3062.0208000000
          -117.8126733333,35.3509216667,3059.8872000000
          -117.8126550000,35.3509266667,3057.4488000000
          -117.8126366667,35.3509333333,3055.3152000000
          -117.8126200000,35.3509416667,3052.8768000000
          -117.8126033333,35.3509500000,3050.7432000000
          -117.8125866667,35.3509566667,3048.3048000000
          -117.8125700000,35.3509633333,3045.8664000000
          -117.8125550000,35.3509716667,3043.7328000000
          -117.8125400000,35.3509800000,3041.5992000000
          -117.8125250000,35.3509883333,3039.4656000000
          -117.8125116667,35.3509983333,3037.3320000000
          -117.8124983333,35.3510083333,3034.8936000000
          -117.8124850000,35.3510166667,3032.7600000000
          -117.8124716667,35.3510283333,3030.6264000000
          -117.8124600000,35.3510400000,3028.1880000000
          -117.8124483333,35.3510533333,3026.0544000000
          -117.8124383333,35.3510683333,3023.9208000000
          -117.8124266667,35.3510816667,3021.4824000000
          -117.8124150000,35.3510983333,3019.3488000000
          -117.8124050000,35.3511133333,3017.2152000000
          -117.8123950000,35.3511316667,3015.0816000000
          -117.8123833333,35.3511483333,3012.9480000000
          -117.8123733333,35.3511683333,3010.8144000000
          -117.8123616667,35.3511883333,3008.6808000000
          -117.8123500000,35.3512083333,3006.5472000000
          -117.8123400000,35.3512283333,3004.1088000000
          -117.8123283333,35.3512500000,3001.9752000000
          -117.8123166667,35.3512733333,2999.8416000000
          -117.8123050000,35.3512966667,2997.7080000000
          -117.8122933333,35.3513233333,2995.5744000000
          -117.8122800000,35.3513516667,2993.4408000000
          -117.8122650000,35.3513800000,2991.0024000000
          -117.8122516667,35.3514083333,2988.8688000000
          -117.8122366667,35.3514383333,2986.4304000000
          -117.8122216667,35.3514700000,2983.9920000000
          -117.8122050000,35.3515016667,2981.8584000000
          -117.8121866667,35.3515333333,2979.4200000000
          -117.8121650000,35.3515666667,2976.9816000000
          -117.8121433333,35.3516000000,2974.8480000000
          -117.8121216667,35.3516333333,2972.4096000000
          -117.8120966667,35.3516683333,2969.9712000000
          -117.8120700000,35.3517016667,2967.8376000000
          -117.8120400000,35.3517350000,2965.3992000000
          -117.8120100000,35.3517666667,2962.9608000000
          -117.8119800000,35.3517983333,2960.5224000000
          -117.8119483333,35.3518300000,2958.0840000000
          -117.8119166667,35.3518616667,2955.9504000000
          -117.8118833333,35.3518933333,2953.5120000000
          -117.8118500000,35.3519266667,2951.0736000000
          -117.8118166667,35.3519583333,2948.9400000000
          -117.8117816667,35.3519900000,2946.8064000000
          -117.8117450000,35.3520200000,2944.6728000000
          -117.8117083333,35.3520500000,2942.5392000000
          -117.8116700000,35.3520800000,2940.1008000000
          -117.8116316667,35.3521066667,2937.9672000000
          -117.8115933333,35.3521316667,2935.8336000000
          -117.8115533333,35.3521566667,2933.7000000000
          -117.8115150000,35.3521833333,2931.2616000000
          -117.8114750000,35.3522083333,2929.1280000000
          -117.8114366667,35.3522333333,2926.9944000000
          -117.8113966667,35.3522566667,2924.8608000000
          -117.8113583333,35.3522816667,2922.7272000000
          -117.8113200000,35.3523050000,2920.5936000000
          -117.8112816667,35.3523283333,2918.7648000000
          -117.8112433333,35.3523533333,2916.6312000000
          -117.8112066667,35.3523766667,2914.4976000000
          -117.8111683333,35.3523983333,2912.6688000000
          -117.8111300000,35.3524200000,2910.5352000000
          -117.8110916667,35.3524400000,2908.7064000000
          -117.8110533333,35.3524600000,2906.5728000000
          -117.8110150000,35.3524783333,2904.4392000000
          -117.8109783333,35.3524983333,2902.3056000000
          -117.8109400000,35.3525166667,2900.4768000000
          -117.8109016667,35.3525350000,2898.3432000000
          -117.8108633333,35.3525516667,2896.2096000000
          -117.8108250000,35.3525700000,2894.0760000000
          -117.8107866667,35.3525866667,2892.2472000000
          -117.8107483333,35.3526033333,2890.1136000000
          -117.8107100000,35.3526200000,2887.9800000000
          -117.8106733333,35.3526350000,2885.8464000000
          -117.8106366667,35.3526483333,2883.7128000000
          -117.8105983333,35.3526616667,2881.5792000000
          -117.8105616667,35.3526766667,2879.4456000000
          -117.8105233333,35.3526900000,2877.3120000000
          -117.8104866667,35.3527033333,2875.1784000000
          -117.8104500000,35.3527166667,2873.0448000000
          -117.8104133333,35.3527300000,2870.9112000000
          -117.8103783333,35.3527433333,2868.7776000000
          -117.8103433333,35.3527566667,2866.6440000000
          -117.8103066667,35.3527700000,2864.5104000000
          -117.8102700000,35.3527833333,2862.3768000000
          -117.8102350000,35.3527966667,2860.5480000000
          -117.8102000000,35.3528100000,2858.1096000000
          -117.8101666667,35.3528216667,2855.9760000000
          -117.8101350000,35.3528333333,2853.8424000000
          -117.8101033333,35.3528433333,2851.7088000000
          -117.8100716667,35.3528550000,2849.5752000000
          -117.8100400000,35.3528650000,2847.4416000000
          -117.8100100000,35.3528750000,2845.3080000000
          -117.8099816667,35.3528850000,2843.1744000000
          -117.8099550000,35.3528933333,2841.0408000000
          -117.8099283333,35.3529016667,2838.9072000000
          -117.8099016667,35.3529100000,2836.4688000000
          -117.8098766667,35.3529183333,2834.3352000000
          -117.8098516667,35.3529250000,2832.2016000000
          -117.8098283333,35.3529316667,2830.0680000000
          -117.8098083333,35.3529383333,2827.9344000000
          -117.8097900000,35.3529433333,2825.8008000000
          -117.8097733333,35.3529500000,2823.3624000000
          -117.8097566667,35.3529566667,2821.2288000000
          -117.8097416667,35.3529650000,2818.7904000000
          -117.8097283333,35.3529716667,2816.3520000000
          -117.8097166667,35.3529800000,2814.2184000000
          -117.8097083333,35.3529900000,2811.7800000000
          -117.8097000000,35.3530016667,2809.6464000000
          -117.8096916667,35.3530116667,2807.2080000000
          -117.8096850000,35.3530250000,2804.7696000000
          -117.8096800000,35.3530400000,2802.3312000000
          -117.8096733333,35.3530550000,2799.8928000000
          -117.8096683333,35.3530716667,2797.1496000000
          -117.8096616667,35.3530900000,2794.7112000000
          -117.8096550000,35.3531100000,2792.2728000000
          -117.8096500000,35.3531300000,2790.1392000000
          -117.8096450000,35.3531516667,2787.7008000000
          -117.8096400000,35.3531750000,2785.2624000000
          -117.8096333333,35.3532000000,2782.8240000000
          -117.8096250000,35.3532250000,2780.6904000000
          -117.8096166667,35.3532500000,2778.2520000000
          -117.8096100000,35.3532750000,2775.8136000000
          -117.8096016667,35.3533000000,2773.6800000000
          -117.8095916667,35.3533266667,2771.5464000000
          -117.8095816667,35.3533550000,2769.4128000000
          -117.8095716667,35.3533833333,2766.9744000000
          -117.8095583333,35.3534116667,2764.8408000000
          -117.8095450000,35.3534400000,2762.7072000000
          -117.8095300000,35.3534700000,2760.2688000000
          -117.8095150000,35.3535000000,2758.1352000000
          -117.8094983333,35.3535300000,2756.0016000000
          -117.8094783333,35.3535600000,2753.5632000000
          -117.8094566667,35.3535916667,2751.4296000000
          -117.8094350000,35.3536216667,2749.2960000000
          -117.8094133333,35.3536533333,2746.8576000000
          -117.8093900000,35.3536850000,2744.7240000000
          -117.8093633333,35.3537166667,2742.5904000000
          -117.8093350000,35.3537466667,2740.1520000000
          -117.8093066667,35.3537766667,2738.0184000000
          -117.8092750000,35.3538066667,2735.5800000000
          -117.8092433333,35.3538366667,2733.4464000000
          -117.8092100000,35.3538666667,2731.0080000000
          -117.8091750000,35.3538966667,2728.5696000000
          -117.8091383333,35.3539233333,2726.4360000000
          -117.8091016667,35.3539500000,2723.9976000000
          -117.8090650000,35.3539750000,2721.5592000000
          -117.8090283333,35.3540000000,2719.1208000000
          -117.8089900000,35.3540266667,2716.6824000000
          -117.8089500000,35.3540500000,2714.5488000000
          -117.8089100000,35.3540733333,2712.1104000000
          -117.8088700000,35.3540950000,2709.6720000000
          -117.8088316667,35.3541166667,2707.5384000000
          -117.8087916667,35.3541383333,2705.4048000000
          -117.8087516667,35.3541583333,2703.2712000000
          -117.8087100000,35.3541800000,2701.1376000000
          -117.8086716667,35.3541983333,2699.0040000000
          -117.8086316667,35.3542183333,2696.8704000000
          -117.8085933333,35.3542350000,2694.7368000000
          -117.8085550000,35.3542500000,2692.6032000000
          -117.8085183333,35.3542650000,2690.4696000000
          -117.8084800000,35.3542783333,2688.3360000000
          -117.8084450000,35.3542916667,2686.2024000000
          -117.8084083333,35.3543050000,2684.0688000000
          -117.8083733333,35.3543183333,2681.9352000000
          -117.8083366667,35.3543300000,2679.8016000000
          -117.8083016667,35.3543416667,2677.9728000000
          -117.8082666667,35.3543516667,2675.8392000000
          -117.8082333333,35.3543600000,2673.4008000000
          -117.8082000000,35.3543683333,2671.2672000000
          -117.8081700000,35.3543750000,2669.1336000000
          -117.8081400000,35.3543800000,2667.0000000000
          -117.8081133333,35.3543850000,2664.5616000000
          -117.8080866667,35.3543916667,2662.4280000000
          -117.8080633333,35.3543950000,2659.9896000000
          -117.8080400000,35.3544000000,2657.5512000000
          -117.8080166667,35.3544033333,2655.1128000000
          -117.8079950000,35.3544066667,2652.9792000000
          -117.8079733333,35.3544116667,2650.5408000000
          -117.8079533333,35.3544150000,2648.4072000000
          -117.8079350000,35.3544183333,2645.9688000000
          -117.8079166667,35.3544233333,2643.8352000000
          -117.8079000000,35.3544266667,2641.3968000000
          -117.8078816667,35.3544316667,2639.2632000000
          -117.8078650000,35.3544350000,2637.1296000000
          -117.8078500000,35.3544400000,2634.9960000000
          -117.8078350000,35.3544450000,2632.8624000000
          -117.8078200000,35.3544516667,2630.7288000000
          -117.8078050000,35.3544566667,2628.5952000000
          -117.8077900000,35.3544633333,2626.4616000000
          -117.8077750000,35.3544683333,2624.3280000000
          -117.8077616667,35.3544750000,2622.4992000000
          -117.8077466667,35.3544816667,2620.3656000000
          -117.8077333333,35.3544900000,2618.2320000000
          -117.8077200000,35.3544983333,2616.0984000000
          -117.8077083333,35.3545066667,2614.2696000000
          -117.8076950000,35.3545166667,2612.1360000000
          -117.8076816667,35.3545250000,2610.0024000000
          -117.8076683333,35.3545350000,2607.8688000000
          -117.8076550000,35.3545450000,2606.0400000000
          -117.8076433333,35.3545566667,2603.9064000000
          -117.8076316667,35.3545700000,2602.0776000000
          -117.8076216667,35.3545833333,2599.9440000000
          -117.8076116667,35.3545966667,2597.8104000000
          -117.8076016667,35.3546116667,2595.6768000000
          -117.8075916667,35.3546266667,2593.5432000000
          -117.8075816667,35.3546433333,2591.4096000000
          -117.8075733333,35.3546600000,2589.2760000000
          -117.8075650000,35.3546783333,2587.1424000000
          -117.8075566667,35.3546983333,2585.0088000000
          -117.8075500000,35.3547200000,2583.1800000000
          -117.8075433333,35.3547400000,2581.0464000000
          -117.8075366667,35.3547633333,2578.9128000000
          -117.8075316667,35.3547883333,2576.7792000000
          -117.8075250000,35.3548150000,2574.3408000000
          -117.8075166667,35.3548433333,2572.2072000000
          -117.8075066667,35.3548716667,2569.4640000000
          -117.8074950000,35.3549016667,2567.0256000000
          -117.8074816667,35.3549316667,2564.5872000000
          -117.8074666667,35.3549633333,2562.1488000000
          -117.8074500000,35.3549933333,2559.7104000000
          -117.8074316667,35.3550250000,2556.9672000000
          -117.8074116667,35.3550566667,2554.5288000000
          -117.8073916667,35.3550883333,2552.3952000000
          -117.8073716667,35.3551216667,2549.9568000000
          -117.8073500000,35.3551533333,2547.8232000000
          -117.8073266667,35.3551850000,2545.3848000000
          -117.8073016667,35.3552166667,2543.2512000000
          -117.8072733333,35.3552450000,2540.8128000000
          -117.8072450000,35.3552733333,2538.3744000000
          -117.8072133333,35.3553016667,2536.2408000000
          -117.8071816667,35.3553283333,2534.1072000000
          -117.8071483333,35.3553533333,2531.6688000000
          -117.8071150000,35.3553783333,2529.5352000000
          -117.8070816667,35.3554050000,2527.0968000000
          -117.8070466667,35.3554300000,2524.9632000000
          -117.8070116667,35.3554550000,2522.8296000000
          -117.8069750000,35.3554783333,2520.6960000000
          -117.8069366667,35.3555000000,2518.5624000000
          -117.8068966667,35.3555216667,2516.4288000000
          -117.8068583333,35.3555400000,2513.9904000000
          -117.8068200000,35.3555600000,2511.8568000000
          -117.8067816667,35.3555766667,2509.7232000000
          -117.8067433333,35.3555916667,2507.2848000000
          -117.8067033333,35.3556066667,2505.1512000000
          -117.8066650000,35.3556200000,2502.7128000000
          -117.8066266667,35.3556300000,2500.5792000000
          -117.8065916667,35.3556400000,2498.1408000000
          -117.8065550000,35.3556483333,2496.0072000000
          -117.8065216667,35.3556583333,2493.5688000000
          -117.8064883333,35.3556666667,2491.4352000000
          -117.8064550000,35.3556733333,2489.3016000000
          -117.8064250000,35.3556783333,2487.1680000000
          -117.8063933333,35.3556850000,2485.0344000000
          -117.8063650000,35.3556883333,2482.9008000000
          -117.8063366667,35.3556933333,2481.0720000000
          -117.8063083333,35.3556966667,2478.9384000000
          -117.8062833333,35.3557000000,2477.1096000000
          -117.8062600000,35.3557016667,2474.9760000000
          -117.8062366667,35.3557050000,2472.8424000000
          -117.8062133333,35.3557066667,2470.7088000000
          -117.8061933333,35.3557083333,2468.5752000000
          -117.8061750000,35.3557100000,2466.4416000000
          -117.8061583333,35.3557116667,2464.3080000000
          -117.8061416667,35.3557116667,2462.1744000000
          -117.8061233333,35.3557133333,2460.0408000000
          -117.8061083333,35.3557150000,2457.9072000000
          -117.8060916667,35.3557166667,2455.4688000000
          -117.8060766667,35.3557166667,2453.3352000000
          -117.8060600000,35.3557183333,2451.2016000000
          -117.8060450000,35.3557183333,2449.0680000000
          -117.8060300000,35.3557200000,2446.9344000000
          -117.8060133333,35.3557200000,2444.8008000000
          -117.8059983333,35.3557200000,2442.6672000000
          -117.8059833333,35.3557216667,2440.5336000000
          -117.8059683333,35.3557216667,2438.4000000000
          -117.8059533333,35.3557233333,2436.5712000000
          -117.8059366667,35.3557250000,2434.4376000000
          -117.8059200000,35.3557283333,2432.3040000000
          -117.8059050000,35.3557300000,2430.4752000000
          -117.8058900000,35.3557333333,2428.6464000000
          -117.8058733333,35.3557350000,2426.5128000000
          -117.8058566667,35.3557383333,2424.6840000000
          -117.8058416667,35.3557416667,2422.8552000000
          -117.8058250000,35.3557450000,2421.0264000000
          -117.8058100000,35.3557466667,2419.1976000000
          -117.8057933333,35.3557500000,2417.3688000000
          -117.8057783333,35.3557533333,2415.5400000000
          -117.8057633333,35.3557566667,2413.7112000000
          -117.8057500000,35.3557616667,2411.5776000000
          -117.8057366667,35.3557666667,2409.7488000000
          -117.8057266667,35.3557716667,2407.6152000000
          -117.8057166667,35.3557766667,2405.4816000000
          -117.8057066667,35.3557833333,2403.3480000000
          -117.8056966667,35.3557900000,2401.2144000000
          -117.8056866667,35.3557983333,2399.0808000000
          -117.8056766667,35.3558050000,2396.9472000000
          -117.8056683333,35.3558133333,2394.8136000000
          -117.8056600000,35.3558233333,2392.6800000000
          -117.8056516667,35.3558333333,2390.5464000000
          -117.8056433333,35.3558466667,2388.4128000000
          -117.8056366667,35.3558600000,2386.2792000000
          -117.8056283333,35.3558750000,2384.1456000000
          -117.8056216667,35.3558916667,2382.3168000000
          -117.8056133333,35.3559083333,2380.1832000000
          -117.8056066667,35.3559266667,2378.0496000000
          -117.8056000000,35.3559466667,2375.9160000000
          -117.8055916667,35.3559683333,2374.0872000000
          -117.8055816667,35.3559900000,2371.9536000000
          -117.8055716667,35.3560150000,2369.8200000000
          -117.8055616667,35.3560416667,2367.6864000000
          -117.8055500000,35.3560683333,2365.5528000000
          -117.8055366667,35.3560983333,2363.4192000000
          -117.8055200000,35.3561283333,2360.9808000000
          -117.8055033333,35.3561583333,2358.5424000000
          -117.8054816667,35.3561866667,2356.1040000000
          -117.8054600000,35.3562166667,2353.6656000000
          -117.8054350000,35.3562450000,2351.2272000000
          -117.8054066667,35.3562733333,2348.4840000000
          -117.8053800000,35.3562983333,2346.0456000000
          -117.8053516667,35.3563216667,2343.3024000000
          -117.8053216667,35.3563433333,2340.8640000000
          -117.8052933333,35.3563650000,2338.4256000000
          -117.8052633333,35.3563883333,2335.6824000000
          -117.8052333333,35.3564116667,2333.5488000000
          -117.8052033333,35.3564350000,2331.4152000000
          -117.8051733333,35.3564566667,2329.2816000000
          -117.8051450000,35.3564800000,2327.1480000000
          -117.8051150000,35.3565000000,2325.0144000000
          -117.8050866667,35.3565216667,2322.8808000000
          -117.8050583333,35.3565433333,2320.7472000000
          -117.8050300000,35.3565633333,2318.6136000000
          -117.8050016667,35.3565833333,2316.7848000000
          -117.8049733333,35.3566016667,2314.6512000000
          -117.8049450000,35.3566216667,2312.8224000000
          -117.8049183333,35.3566400000,2310.9936000000
          -117.8048900000,35.3566600000,2308.8600000000
          -117.8048616667,35.3566783333,2307.0312000000
          -117.8048350000,35.3566983333,2304.8976000000
          -117.8048100000,35.3567183333,2303.0688000000
          -117.8047833333,35.3567383333,2301.2400000000
          -117.8047566667,35.3567583333,2299.1064000000
          -117.8047283333,35.3567766667,2297.2776000000
          -117.8047000000,35.3567916667,2295.4488000000
          -117.8046733333,35.3568066667,2293.6200000000
          -117.8046450000,35.3568216667,2291.4864000000
          -117.8046166667,35.3568333333,2289.3528000000
          -117.8045900000,35.3568466667,2287.2192000000
          -117.8045616667,35.3568583333,2285.0856000000
          -117.8045350000,35.3568716667,2282.9520000000
          -117.8045066667,35.3568833333,2280.8184000000
          -117.8044783333,35.3568966667,2278.6848000000
          -117.8044516667,35.3569066667,2276.5512000000
          -117.8044250000,35.3569166667,2274.4176000000
          -117.8043983333,35.3569266667,2272.2840000000
          -117.8043700000,35.3569366667,2270.1504000000
          -117.8043450000,35.3569466667,2268.0168000000
          -117.8043183333,35.3569550000,2266.1880000000
          -117.8042950000,35.3569633333,2264.0544000000
          -117.8042716667,35.3569683333,2261.9208000000
          -117.8042500000,35.3569750000,2259.4824000000
          -117.8042283333,35.3569816667,2257.3488000000
          -117.8042066667,35.3569883333,2255.2152000000
          -117.8041866667,35.3569933333,2253.0816000000
          -117.8041666667,35.3570000000,2250.9480000000
          -117.8041483333,35.3570050000,2248.8144000000
          -117.8041300000,35.3570116667,2246.6808000000
          -117.8041133333,35.3570166667,2244.8520000000
          -117.8040966667,35.3570216667,2242.7184000000
          -117.8040816667,35.3570266667,2240.5848000000
          -117.8040666667,35.3570316667,2238.4512000000
          -117.8040550000,35.3570383333,2236.6224000000
          -117.8040433333,35.3570433333,2234.4888000000
          -117.8040350000,35.3570500000,2232.3552000000
          -117.8040266667,35.3570583333,2230.2216000000
          -117.8040200000,35.3570650000,2228.0880000000
          -117.8040116667,35.3570716667,2225.9544000000
          -117.8040050000,35.3570783333,2223.8208000000
          -117.8039983333,35.3570850000,2221.9920000000
          -117.8039950000,35.3570916667,2219.5536000000
          -117.8039916667,35.3571000000,2217.7248000000
          -117.8039883333,35.3571083333,2215.5912000000
          -117.8039866667,35.3571166667,2213.1528000000
          -117.8039850000,35.3571250000,2211.0192000000
          -117.8039850000,35.3571333333,2208.8856000000
          -117.8039850000,35.3571450000,2206.7520000000
          -117.8039850000,35.3571550000,2204.6184000000
          -117.8039866667,35.3571666667,2202.4848000000
          -117.8039883333,35.3571783333,2200.3512000000
          -117.8039900000,35.3571916667,2198.2176000000
          -117.8039933333,35.3572066667,2195.7792000000
          -117.8039950000,35.3572216667,2193.6456000000
          -117.8039966667,35.3572383333,2191.5120000000
          -117.8040000000,35.3572566667,2189.3784000000
          -117.8040016667,35.3572733333,2187.2448000000
          -117.8040033333,35.3572916667,2185.1112000000
          -117.8040050000,35.3573100000,2182.9776000000
          -117.8040050000,35.3573300000,2180.8440000000
          -117.8040066667,35.3573516667,2178.7104000000
          -117.8040066667,35.3573733333,2176.5768000000
          -117.8040050000,35.3573950000,2174.4432000000
          -117.8040050000,35.3574166667,2172.3096000000
          -117.8040033333,35.3574416667,2170.1760000000
          -117.8040000000,35.3574666667,2168.3472000000
          -117.8039966667,35.3574933333,2166.2136000000
          -117.8039916667,35.3575200000,2164.0800000000
          -117.8039850000,35.3575483333,2161.9464000000
          -117.8039783333,35.3575750000,2159.8128000000
          -117.8039716667,35.3576050000,2157.3744000000
          -117.8039633333,35.3576333333,2155.5456000000
          -117.8039550000,35.3576650000,2153.1072000000
          -117.8039450000,35.3576966667,2150.9736000000
          -117.8039333333,35.3577283333,2148.8400000000
          -117.8039216667,35.3577600000,2146.7064000000
          -117.8039083333,35.3577933333,2144.2680000000
          -117.8038916667,35.3578266667,2142.1344000000
          -117.8038750000,35.3578600000,2139.3912000000
          -117.8038566667,35.3578916667,2136.9528000000
          -117.8038366667,35.3579233333,2134.8192000000
          -117.8038150000,35.3579550000,2132.3808000000
          -117.8037950000,35.3579883333,2130.2472000000
          -117.8037733333,35.3580216667,2128.1136000000
          -117.8037516667,35.3580533333,2125.9800000000
          -117.8037300000,35.3580850000,2123.8464000000
          -117.8037066667,35.3581150000,2121.4080000000
          -117.8036833333,35.3581450000,2119.2744000000
          -117.8036600000,35.3581750000,2117.1408000000
          -117.8036383333,35.3582050000,2115.3120000000
          -117.8036133333,35.3582350000,2113.1784000000
          -117.8035900000,35.3582633333,2111.3496000000
          -117.8035650000,35.3582900000,2109.2160000000
          -117.8035400000,35.3583183333,2107.0824000000
          -117.8035133333,35.3583450000,2105.2536000000
          -117.8034883333,35.3583700000,2103.1200000000
          -117.8034616667,35.3583966667,2101.2912000000
          -117.8034350000,35.3584216667,2099.1576000000
          -117.8034066667,35.3584450000,2097.3288000000
          -117.8033783333,35.3584683333,2095.1952000000
          -117.8033516667,35.3584916667,2093.0616000000
          -117.8033216667,35.3585150000,2091.2328000000
          -117.8032933333,35.3585383333,2089.0992000000
          -117.8032650000,35.3585616667,2086.9656000000
          -117.8032350000,35.3585850000,2085.1368000000
          -117.8032050000,35.3586083333,2083.0032000000
          -117.8031750000,35.3586300000,2080.8696000000
          -117.8031433333,35.3586500000,2079.0408000000
          -117.8031133333,35.3586700000,2076.9072000000
          -117.8030833333,35.3586900000,2074.7736000000
          -117.8030516667,35.3587083333,2072.9448000000
          -117.8030216667,35.3587266667,2070.8112000000
          -117.8029900000,35.3587450000,2068.6776000000
          -117.8029583333,35.3587616667,2066.8488000000
          -117.8029283333,35.3587783333,2064.7152000000
          -117.8028966667,35.3587933333,2062.5816000000
          -117.8028666667,35.3588083333,2060.4480000000
          -117.8028350000,35.3588250000,2058.6192000000
          -117.8028050000,35.3588400000,2056.4856000000
          -117.8027733333,35.3588533333,2054.3520000000
          -117.8027433333,35.3588666667,2052.5232000000
          -117.8027133333,35.3588783333,2050.3896000000
          -117.8026833333,35.3588900000,2048.2560000000
          -117.8026533333,35.3589016667,2046.1224000000
          -117.8026250000,35.3589133333,2043.9888000000
          -117.8025966667,35.3589233333,2042.1600000000
          -117.8025700000,35.3589333333,2040.0264000000
          -117.8025433333,35.3589433333,2037.8928000000
          -117.8025183333,35.3589533333,2035.7592000000
          -117.8024916667,35.3589616667,2033.6256000000
          -117.8024650000,35.3589716667,2031.7968000000
          -117.8024400000,35.3589800000,2029.6632000000
          -117.8024150000,35.3589900000,2027.5296000000
          -117.8023916667,35.3589983333,2025.3960000000
          -117.8023700000,35.3590083333,2023.2624000000
          -117.8023466667,35.3590166667,2021.4336000000
          -117.8023233333,35.3590266667,2019.3000000000
          -117.8023016667,35.3590350000,2017.1664000000
          -117.8022800000,35.3590433333,2015.3376000000
          -117.8022583333,35.3590533333,2013.2040000000
          -117.8022383333,35.3590616667,2011.3752000000
          -117.8022200000,35.3590700000,2009.2416000000
          -117.8022016667,35.3590800000,2007.1080000000
          -117.8021833333,35.3590883333,2005.2792000000
          -117.8021666667,35.3590966667,2003.4504000000
          -117.8021500000,35.3591050000,2001.3168000000
          -117.8021366667,35.3591133333,1999.1832000000
          -117.8021216667,35.3591216667,1997.3544000000
          -117.8021083333,35.3591316667,1995.5256000000
          -117.8020950000,35.3591400000,1993.3920000000
          -117.8020833333,35.3591483333,1991.5632000000
          -117.8020716667,35.3591566667,1989.7344000000
          -117.8020600000,35.3591666667,1987.6008000000
          -117.8020500000,35.3591766667,1985.4672000000
          -117.8020416667,35.3591866667,1983.6384000000
          -117.8020333333,35.3591950000,1981.8096000000
          -117.8020250000,35.3592050000,1979.6760000000
          -117.8020183333,35.3592166667,1977.8472000000
          -117.8020116667,35.3592266667,1975.7136000000
          -117.8020066667,35.3592383333,1973.5800000000
          -117.8020000000,35.3592516667,1971.7512000000
          -117.8019950000,35.3592633333,1969.6176000000
          -117.8019916667,35.3592766667,1967.4840000000
          -117.8019866667,35.3592900000,1965.3504000000
          -117.8019833333,35.3593033333,1963.5216000000
          -117.8019800000,35.3593166667,1961.3880000000
          -117.8019766667,35.3593316667,1959.2544000000
          -117.8019733333,35.3593450000,1957.4256000000
          -117.8019700000,35.3593600000,1955.5968000000
          -117.8019666667,35.3593750000,1953.4632000000
          -117.8019633333,35.3593900000,1951.6344000000
          -117.8019600000,35.3594050000,1949.5008000000
          -117.8019566667,35.3594216667,1947.6720000000
          -117.8019516667,35.3594383333,1945.8432000000
          -117.8019483333,35.3594550000,1943.7096000000
          -117.8019433333,35.3594716667,1941.8808000000
          -117.8019400000,35.3594900000,1940.0520000000
          -117.8019350000,35.3595083333,1937.9184000000
          -117.8019300000,35.3595283333,1936.0896000000
          -117.8019266667,35.3595466667,1933.9560000000
          -117.8019216667,35.3595666667,1932.1272000000
          -117.8019166667,35.3595883333,1930.2984000000
          -117.8019133333,35.3596100000,1928.1648000000
          -117.8019100000,35.3596300000,1926.3360000000
          -117.8019050000,35.3596516667,1924.5072000000
          -117.8019016667,35.3596733333,1922.3736000000
          -117.8018983333,35.3596966667,1920.5448000000
          -117.8018950000,35.3597200000,1918.4112000000
          -117.8018916667,35.3597433333,1916.5824000000
          -117.8018866667,35.3597683333,1914.4488000000
          -117.8018833333,35.3597933333,1912.6200000000
          -117.8018783333,35.3598183333,1910.4864000000
          -117.8018750000,35.3598433333,1908.6576000000
          -117.8018700000,35.3598700000,1906.5240000000
          -117.8018666667,35.3598966667,1904.3904000000
          -117.8018616667,35.3599250000,1902.2568000000
          -117.8018550000,35.3599533333,1900.4280000000
          -117.8018483333,35.3599800000,1898.2944000000
          -117.8018416667,35.3600083333,1896.1608000000
          -117.8018366667,35.3600383333,1894.3320000000
          -117.8018283333,35.3600666667,1892.1984000000
          -117.8018200000,35.3600966667,1890.0648000000
          -117.8018116667,35.3601250000,1887.9312000000
          -117.8018016667,35.3601550000,1885.7976000000
          -117.8017916667,35.3601850000,1883.6640000000
          -117.8017833333,35.3602150000,1881.8352000000
          -117.8017733333,35.3602450000,1879.7016000000
          -117.8017616667,35.3602766667,1877.5680000000
          -117.8017500000,35.3603083333,1875.7392000000
          -117.8017366667,35.3603400000,1873.6056000000
          -117.8017233333,35.3603716667,1871.1672000000
          -117.8017083333,35.3604050000,1869.0336000000
          -117.8016950000,35.3604366667,1866.9000000000
          -117.8016800000,35.3604700000,1864.7664000000
          -117.8016650000,35.3605033333,1862.6328000000
          -117.8016500000,35.3605366667,1860.4992000000
          -117.8016350000,35.3605700000,1858.3656000000
          -117.8016183333,35.3606033333,1856.2320000000
          -117.8016033333,35.3606366667,1854.0984000000
          -117.8015883333,35.3606716667,1852.2696000000
          -117.8015700000,35.3607050000,1850.1360000000
          -117.8015533333,35.3607383333,1848.0024000000
          -117.8015350000,35.3607700000,1846.1736000000
          -117.8015166667,35.3608033333,1844.0400000000
          -117.8014983333,35.3608366667,1842.2112000000
          -117.8014783333,35.3608683333,1840.0776000000
          -117.8014600000,35.3609016667,1838.2488000000
          -117.8014400000,35.3609350000,1836.4200000000
          -117.8014216667,35.3609666667,1834.2864000000
          -117.8014000000,35.3609983333,1832.4576000000
          -117.8013800000,35.3610300000,1830.6288000000
          -117.8013616667,35.3610633333,1828.4952000000
          -117.8013416667,35.3610966667,1826.6664000000
          -117.8013216667,35.3611283333,1824.8376000000
          -117.8013000000,35.3611600000,1823.0088000000
          -117.8012800000,35.3611916667,1820.8752000000
          -117.8012583333,35.3612233333,1819.0464000000
          -117.8012366667,35.3612550000,1817.2176000000
          -117.8012150000,35.3612866667,1815.0840000000
          -117.8011950000,35.3613183333,1813.2552000000
          -117.8011733333,35.3613500000,1811.4264000000
          -117.8011516667,35.3613800000,1809.2928000000
          -117.8011300000,35.3614116667,1807.4640000000
          -117.8011066667,35.3614433333,1805.6352000000
          -117.8010866667,35.3614766667,1803.8064000000
          -117.8010650000,35.3615083333,1801.6728000000
          -117.8010433333,35.3615400000,1799.8440000000
          -117.8010216667,35.3615733333,1798.0152000000
          -117.8010000000,35.3616050000,1795.8816000000
          -117.8009766667,35.3616350000,1794.0528000000
          -117.8009550000,35.3616666667,1792.2240000000
          -117.8009316667,35.3617000000,1790.3952000000
          -117.8009100000,35.3617316667,1788.5664000000
          -117.8008883333,35.3617633333,1786.7376000000
          -117.8008666667,35.3617950000,1784.9088000000
          -117.8008450000,35.3618250000,1782.7752000000
          -117.8008233333,35.3618566667,1780.9464000000
          -117.8008000000,35.3618866667,1779.1176000000
          -117.8007783333,35.3619166667,1776.9840000000
          -117.8007550000,35.3619466667,1775.1552000000
          -117.8007333333,35.3619766667,1773.3264000000
          -117.8007083333,35.3620050000,1771.4976000000
          -117.8006850000,35.3620333333,1769.3640000000
          -117.8006600000,35.3620600000,1767.5352000000
          -117.8006350000,35.3620866667,1765.4016000000
          -117.8006116667,35.3621133333,1763.5728000000
          -117.8005866667,35.3621400000,1761.7440000000
          -117.8005616667,35.3621633333,1759.6104000000
          -117.8005366667,35.3621866667,1757.4768000000
          -117.8005116667,35.3622083333,1755.6480000000
          -117.8004866667,35.3622300000,1753.5144000000
          -117.8004616667,35.3622516667,1751.6856000000
          -117.8004350000,35.3622716667,1749.5520000000
          -117.8004083333,35.3622900000,1747.7232000000
          -117.8003816667,35.3623066667,1745.5896000000
          -117.8003533333,35.3623233333,1743.4560000000
          -117.8003250000,35.3623383333,1741.3224000000
          -117.8002966667,35.3623516667,1738.8840000000
          -117.8002683333,35.3623650000,1736.4456000000
          -117.8002416667,35.3623750000,1734.0072000000
          -117.8002166667,35.3623866667,1731.5688000000
          -117.8001933333,35.3623966667,1728.8256000000
          -117.8001733333,35.3624066667,1726.3872000000
          -117.8001516667,35.3624166667,1723.9488000000
          -117.8001300000,35.3624250000,1721.5104000000
          -117.8001100000,35.3624316667,1719.0720000000
          -117.8000916667,35.3624400000,1716.9384000000
          -117.8000750000,35.3624483333,1714.5000000000
          -117.8000583333,35.3624583333,1712.3664000000
          -117.8000416667,35.3624666667,1710.2328000000
          -117.8000233333,35.3624750000,1707.7944000000
          -117.8000066667,35.3624833333,1705.6608000000
          -117.7999900000,35.3624933333,1703.8320000000
          -117.7999750000,35.3625016667,1701.6984000000
          -117.7999616667,35.3625116667,1699.5648000000
          -117.7999483333,35.3625233333,1697.7360000000
          -117.7999350000,35.3625333333,1695.6024000000
          -117.7999233333,35.3625450000,1693.4688000000
          -117.7999116667,35.3625566667,1691.6400000000
          -117.7999016667,35.3625683333,1689.5064000000
          -117.7998916667,35.3625816667,1687.3728000000
          -117.7998816667,35.3625950000,1685.5440000000
          -117.7998716667,35.3626083333,1683.4104000000
          -117.7998633333,35.3626216667,1681.5816000000
          -117.7998566667,35.3626366667,1679.7528000000
          -117.7998500000,35.3626500000,1677.6192000000
          -117.7998450000,35.3626666667,1675.7904000000
          -117.7998416667,35.3626816667,1673.6568000000
          -117.7998400000,35.3627000000,1671.5232000000
          -117.7998383333,35.3627183333,1669.6944000000
          -117.7998366667,35.3627383333,1667.5608000000
          -117.7998383333,35.3627583333,1665.7320000000
          -117.7998383333,35.3627816667,1663.5984000000
          -117.7998400000,35.3628050000,1661.4648000000
          -117.7998400000,35.3628316667,1659.0264000000
          -117.7998416667,35.3628583333,1656.5880000000
          -117.7998416667,35.3628883333,1654.1496000000
          -117.7998433333,35.3629166667,1651.7112000000
          -117.7998450000,35.3629450000,1649.2728000000
          -117.7998466667,35.3629750000,1646.8344000000
          -117.7998466667,35.3630066667,1644.3960000000
          -117.7998466667,35.3630383333,1642.2624000000
          -117.7998466667,35.3630716667,1639.8240000000
          -117.7998450000,35.3631050000,1637.3856000000
          -117.7998433333,35.3631383333,1635.2520000000
          -117.7998416667,35.3631733333,1633.1184000000
          -117.7998383333,35.3632066667,1630.6800000000
          -117.7998333333,35.3632416667,1628.5464000000
          -117.7998283333,35.3632766667,1626.4128000000
          -117.7998216667,35.3633116667,1624.2792000000
          -117.7998150000,35.3633450000,1622.1456000000
          -117.7998100000,35.3633800000,1620.0120000000
          -117.7998033333,35.3634133333,1617.8784000000
          -117.7997966667,35.3634483333,1615.7448000000
          -117.7997883333,35.3634816667,1613.6112000000
          -117.7997816667,35.3635150000,1611.7824000000
          -117.7997733333,35.3635483333,1609.6488000000
          -117.7997633333,35.3635816667,1607.5152000000
          -117.7997533333,35.3636150000,1605.6864000000
          -117.7997433333,35.3636483333,1603.5528000000
          -117.7997333333,35.3636816667,1601.7240000000
          -117.7997200000,35.3637150000,1599.5904000000
          -117.7997083333,35.3637483333,1597.7616000000
          -117.7996950000,35.3637800000,1595.6280000000
          -117.7996816667,35.3638133333,1593.7992000000
          -117.7996666667,35.3638466667,1591.6656000000
          -117.7996533333,35.3638800000,1589.8368000000
          -117.7996383333,35.3639133333,1587.7032000000
          -117.7996216667,35.3639483333,1585.5696000000
          -117.7996050000,35.3639816667,1583.7408000000
          -117.7995866667,35.3640150000,1581.3024000000
          -117.7995700000,35.3640500000,1579.1688000000
          -117.7995516667,35.3640833333,1577.0352000000
          -117.7995333333,35.3641166667,1574.9016000000
          -117.7995150000,35.3641500000,1572.7680000000
          -117.7994966667,35.3641833333,1570.6344000000
          -117.7994766667,35.3642166667,1568.1960000000
          -117.7994566667,35.3642500000,1566.0624000000
          -117.7994366667,35.3642816667,1563.9288000000
          -117.7994166667,35.3643150000,1562.1000000000
          -117.7993966667,35.3643483333,1559.9664000000
          -117.7993783333,35.3643816667,1557.8328000000
          -117.7993583333,35.3644150000,1555.6992000000
          -117.7993383333,35.3644466667,1553.5656000000
          -117.7993200000,35.3644800000,1551.4320000000
          -117.7993016667,35.3645116667,1549.2984000000
          -117.7992816667,35.3645450000,1547.1648000000
          -117.7992616667,35.3645766667,1545.3360000000
          -117.7992416667,35.3646083333,1543.2024000000
          -117.7992200000,35.3646383333,1541.0688000000
          -117.7991983333,35.3646683333,1538.9352000000
          -117.7991750000,35.3646966667,1536.8016000000
          -117.7991516667,35.3647250000,1534.6680000000
          -117.7991283333,35.3647516667,1532.5344000000
          -117.7991033333,35.3647783333,1530.4008000000
          -117.7990783333,35.3648033333,1528.2672000000
          -117.7990533333,35.3648283333,1526.1336000000
          -117.7990266667,35.3648533333,1524.0000000000
          -117.7990016667,35.3648783333,1521.8664000000
          -117.7989750000,35.3649016667,1519.7328000000
          -117.7989483333,35.3649266667,1517.5992000000
          -117.7989216667,35.3649483333,1515.4656000000
          -117.7988933333,35.3649683333,1513.3320000000
          -117.7988650000,35.3649883333,1511.1984000000
          -117.7988383333,35.3650066667,1508.7600000000
          -117.7988133333,35.3650233333,1506.6264000000
          -117.7987866667,35.3650400000,1504.1880000000
          -117.7987600000,35.3650566667,1502.0544000000
          -117.7987333333,35.3650733333,1499.6160000000
          -117.7987050000,35.3650883333,1497.1776000000
          -117.7986800000,35.3651033333,1495.0440000000
          -117.7986550000,35.3651183333,1492.6056000000
          -117.7986316667,35.3651333333,1490.1672000000
          -117.7986066667,35.3651483333,1488.0336000000
          -117.7985800000,35.3651633333,1485.9000000000
          -117.7985550000,35.3651783333,1483.4616000000
          -117.7985300000,35.3651933333,1481.3280000000
          -117.7985033333,35.3652083333,1479.1944000000
          -117.7984783333,35.3652250000,1477.0608000000
          -117.7984533333,35.3652400000,1474.9272000000
          -117.7984283333,35.3652550000,1472.7936000000
          -117.7984016667,35.3652716667,1470.6600000000
          -117.7983750000,35.3652883333,1468.5264000000
          -117.7983466667,35.3653050000,1466.6976000000
          -117.7983200000,35.3653250000,1464.5640000000
          -117.7982916667,35.3653450000,1462.4304000000
          -117.7982633333,35.3653650000,1460.6016000000
          -117.7982350000,35.3653850000,1458.4680000000
          -117.7982066667,35.3654050000,1456.3344000000
          -117.7981800000,35.3654250000,1454.5056000000
          -117.7981516667,35.3654450000,1452.3720000000
          -117.7981233333,35.3654650000,1450.5432000000
          -117.7980966667,35.3654850000,1448.4096000000
          -117.7980700000,35.3655050000,1446.2760000000
          -117.7980433333,35.3655266667,1444.1424000000
          -117.7980183333,35.3655466667,1442.0088000000
          -117.7979933333,35.3655650000,1439.5704000000
          -117.7979700000,35.3655850000,1437.7416000000
          -117.7979483333,35.3656050000,1435.6080000000
          -117.7979250000,35.3656250000,1433.4744000000
          -117.7979050000,35.3656450000,1431.3408000000
          -117.7978850000,35.3656633333,1429.2072000000
          -117.7978650000,35.3656833333,1427.3784000000
          -117.7978483333,35.3657016667,1425.5496000000
          -117.7978333333,35.3657216667,1423.4160000000
          -117.7978183333,35.3657400000,1421.2824000000
          -117.7978066667,35.3657583333,1419.1488000000
          -117.7977950000,35.3657766667,1417.0152000000
          -117.7977833333,35.3657966667,1414.8816000000
          -117.7977733333,35.3658150000,1412.7480000000
          -117.7977666667,35.3658316667,1410.3096000000
          -117.7977616667,35.3658500000,1408.1760000000
          -117.7977583333,35.3658666667,1406.0424000000
          -117.7977550000,35.3658850000,1403.6040000000
          -117.7977533333,35.3659016667,1401.1656000000
          -117.7977533333,35.3659200000,1399.0320000000
          -117.7977533333,35.3659400000,1396.2888000000
          -117.7977550000,35.3659616667,1393.8504000000
          -117.7977550000,35.3659866667,1391.4120000000
          -117.7977550000,35.3660116667,1388.9736000000
          -117.7977516667,35.3660400000,1386.2304000000
          -117.7977483333,35.3660700000,1383.7920000000
          -117.7977450000,35.3660983333,1381.0488000000
          -117.7977416667,35.3661283333,1378.9152000000
          -117.7977366667,35.3661583333,1376.1720000000
          -117.7977316667,35.3661866667,1374.0384000000
          -117.7977266667,35.3662150000,1371.6000000000
          -117.7977233333,35.3662450000,1369.4664000000
          -117.7977200000,35.3662733333,1367.3328000000
          -117.7977150000,35.3663016667,1365.1992000000
          -117.7977116667,35.3663316667,1363.0656000000
          -117.7977050000,35.3663600000,1361.2368000000
          -117.7976983333,35.3663900000,1359.1032000000
          -117.7976883333,35.3664200000,1356.9696000000
          -117.7976783333,35.3664516667,1354.8360000000
          -117.7976650000,35.3664816667,1353.0072000000
          -117.7976533333,35.3665133333,1350.8736000000
          -117.7976400000,35.3665433333,1349.0448000000
          -117.7976283333,35.3665750000,1346.9112000000
          -117.7976166667,35.3666066667,1344.7776000000
          -117.7976033333,35.3666366667,1342.9488000000
          -117.7975900000,35.3666666667,1341.1200000000
          -117.7975766667,35.3666983333,1339.2912000000
          -117.7975633333,35.3667300000,1337.1576000000
          -117.7975483333,35.3667616667,1335.3288000000
          -117.7975333333,35.3667950000,1333.5000000000
          -117.7975166667,35.3668266667,1331.6712000000
          -117.7974983333,35.3668600000,1329.8424000000
          -117.7974800000,35.3668916667,1327.7088000000
          -117.7974600000,35.3669233333,1325.5752000000
          -117.7974383333,35.3669566667,1323.4416000000
          -117.7974183333,35.3669883333,1321.6128000000
          -117.7973966667,35.3670216667,1319.1744000000
          -117.7973733333,35.3670533333,1317.3456000000
          -117.7973516667,35.3670850000,1315.2120000000
          -117.7973300000,35.3671166667,1313.0784000000
          -117.7973083333,35.3671483333,1310.9448000000
          -117.7972850000,35.3671800000,1308.8112000000
          -117.7972633333,35.3672116667,1306.9824000000
          -117.7972416667,35.3672433333,1304.8488000000
          -117.7972183333,35.3672750000,1303.0200000000
          -117.7971933333,35.3673050000,1300.8864000000
          -117.7971683333,35.3673333333,1298.7528000000
          -117.7971433333,35.3673633333,1296.9240000000
          -117.7971166667,35.3673916667,1294.7904000000
          -117.7970900000,35.3674200000,1292.6568000000
          -117.7970633333,35.3674483333,1290.5232000000
          -117.7970383333,35.3674750000,1288.3896000000
          -117.7970116667,35.3675016667,1286.5608000000
          -117.7969833333,35.3675283333,1284.4272000000
          -117.7969566667,35.3675550000,1282.2936000000
          -117.7969266667,35.3675800000,1280.1600000000
          -117.7968983333,35.3676066667,1278.3312000000
          -117.7968683333,35.3676300000,1276.1976000000
          -117.7968383333,35.3676550000,1274.0640000000
          -117.7968083333,35.3676766667,1272.2352000000
          -117.7967766667,35.3677000000,1270.1016000000
          -117.7967466667,35.3677216667,1267.6632000000
          -117.7967150000,35.3677433333,1265.8344000000
          -117.7966850000,35.3677633333,1263.7008000000
          -117.7966533333,35.3677816667,1261.5672000000
          -117.7966233333,35.3677983333,1259.4336000000
          -117.7965933333,35.3678150000,1257.3000000000
          -117.7965616667,35.3678300000,1255.1664000000
          -117.7965316667,35.3678450000,1253.0328000000
          -117.7965016667,35.3678583333,1251.2040000000
          -117.7964716667,35.3678700000,1249.0704000000
          -117.7964450000,35.3678816667,1246.9368000000
          -117.7964200000,35.3678933333,1244.4984000000
          -117.7963966667,35.3679033333,1242.0600000000
          -117.7963733333,35.3679133333,1239.9264000000
          -117.7963500000,35.3679233333,1237.7928000000
          -117.7963300000,35.3679316667,1235.3544000000
          -117.7963100000,35.3679383333,1233.5256000000
          -117.7962916667,35.3679466667,1231.3920000000
          -117.7962750000,35.3679566667,1228.9536000000
          -117.7962583333,35.3679650000,1226.8200000000
          -117.7962433333,35.3679716667,1224.6864000000
          -117.7962283333,35.3679800000,1222.5528000000
          -117.7962116667,35.3679866667,1220.4192000000
          -117.7961933333,35.3679933333,1218.5904000000
          -117.7961783333,35.3680000000,1216.7616000000
          -117.7961650000,35.3680050000,1214.9328000000
          -117.7961533333,35.3680116667,1212.7992000000
          -117.7961433333,35.3680200000,1210.6656000000
          -117.7961333333,35.3680316667,1208.5320000000
          -117.7961250000,35.3680416667,1206.0936000000
          -117.7961166667,35.3680533333,1203.9600000000
          -117.7961100000,35.3680666667,1202.1312000000
          -117.7961033333,35.3680783333,1199.9976000000
          -117.7960983333,35.3680916667,1197.8640000000
          -117.7960916667,35.3681050000,1195.7304000000
          -117.7960866667,35.3681183333,1193.5968000000
          -117.7960800000,35.3681316667,1191.7680000000
          -117.7960750000,35.3681450000,1189.9392000000
          -117.7960666667,35.3681583333,1188.1104000000
          -117.7960600000,35.3681700000,1186.2816000000
          -117.7960533333,35.3681833333,1184.1480000000
          -117.7960466667,35.3681983333,1182.3192000000
          -117.7960383333,35.3682116667,1180.1856000000
          -117.7960300000,35.3682250000,1178.3568000000
          -117.7960216667,35.3682400000,1176.5280000000
          -117.7960133333,35.3682533333,1174.6992000000
          -117.7960033333,35.3682683333,1172.5656000000
          -117.7959950000,35.3682833333,1170.7368000000
          -117.7959866667,35.3682983333,1168.9080000000
          -117.7959783333,35.3683150000,1166.7744000000
          -117.7959716667,35.3683300000,1165.2504000000
          -117.7959633333,35.3683466667,1163.1168000000
          -117.7959566667,35.3683633333,1161.2880000000
          -117.7959500000,35.3683800000,1159.4592000000
          -117.7959466667,35.3683983333,1157.9352000000
          -117.7959416667,35.3684183333,1156.1064000000
          -117.7959366667,35.3684383333,1154.2776000000
          -117.7959316667,35.3684600000,1152.4488000000
          -117.7959283333,35.3684816667,1150.6200000000
          -117.7959250000,35.3685050000,1148.4864000000
          -117.7959200000,35.3685300000,1146.6576000000
          -117.7959166667,35.3685566667,1144.8288000000
          -117.7959116667,35.3685850000,1142.6952000000
          -117.7959066667,35.3686133333,1140.5616000000
          -117.7959000000,35.3686416667,1138.4280000000
          -117.7958933333,35.3686700000,1136.2944000000
          -117.7958866667,35.3687000000,1134.1608000000
          -117.7958800000,35.3687316667,1132.0272000000
          -117.7958716667,35.3687633333,1129.8936000000
          -117.7958616667,35.3687966667,1127.7600000000
          -117.7958500000,35.3688300000,1125.6264000000
          -117.7958383333,35.3688616667,1123.4928000000
          -117.7958266667,35.3688950000,1121.3592000000
          -117.7958166667,35.3689266667,1119.5304000000
          -117.7958033333,35.3689600000,1117.3968000000
          -117.7957900000,35.3689916667,1115.2632000000
          -117.7957750000,35.3690233333,1113.4344000000
          -117.7957600000,35.3690550000,1111.6056000000
          -117.7957433333,35.3690866667,1109.4720000000
          -117.7957266667,35.3691183333,1107.6432000000
          -117.7957100000,35.3691516667,1105.8144000000
          -117.7956933333,35.3691833333,1103.6808000000
          -117.7956733333,35.3692150000,1101.8520000000
          -117.7956533333,35.3692450000,1100.0232000000
          -117.7956333333,35.3692766667,1098.1944000000
          -117.7956116667,35.3693083333,1096.0608000000
          -117.7955900000,35.3693383333,1094.2320000000
          -117.7955666667,35.3693666667,1092.4032000000
          -117.7955433333,35.3693966667,1090.2696000000
          -117.7955183333,35.3694250000,1088.4408000000
          -117.7954950000,35.3694550000,1086.6120000000
          -117.7954700000,35.3694850000,1084.7832000000
          -117.7954466667,35.3695150000,1082.6496000000
          -117.7954233333,35.3695450000,1080.8208000000
          -117.7953983333,35.3695750000,1078.6872000000
          -117.7953733333,35.3696033333,1076.8584000000
          -117.7953483333,35.3696316667,1075.0296000000
          -117.7953216667,35.3696600000,1072.8960000000
          -117.7952966667,35.3696883333,1071.0672000000
          -117.7952683333,35.3697150000,1069.5432000000
          -117.7952416667,35.3697433333,1067.4096000000
          -117.7952150000,35.3697700000,1065.5808000000
          -117.7951883333,35.3697966667,1063.7520000000
          -117.7951616667,35.3698233333,1062.2280000000
          -117.7951350000,35.3698500000,1060.3992000000
          -117.7951066667,35.3698766667,1058.5704000000
          -117.7950800000,35.3699016667,1056.7416000000
          -117.7950533333,35.3699266667,1055.2176000000
          -117.7950266667,35.3699533333,1053.3888000000
          -117.7950000000,35.3699783333,1051.5600000000
          -117.7949750000,35.3700033333,1049.7312000000
          -117.7949483333,35.3700283333,1048.2072000000
          -117.7949216667,35.3700533333,1046.3784000000
          -117.7948950000,35.3700783333,1044.5496000000
          -117.7948683333,35.3701016667,1043.0256000000
          -117.7948400000,35.3701266667,1041.1968000000
          -117.7948133333,35.3701516667,1039.3680000000
          -117.7947850000,35.3701766667,1037.8440000000
          -117.7947566667,35.3702000000,1036.0152000000
          -117.7947283333,35.3702233333,1034.1864000000
          -117.7947000000,35.3702466667,1032.3576000000
          -117.7946716667,35.3702700000,1030.5288000000
          -117.7946433333,35.3702933333,1028.7000000000
          -117.7946150000,35.3703166667,1026.8712000000
          -117.7945850000,35.3703400000,1025.3472000000
          -117.7945566667,35.3703616667,1023.5184000000
          -117.7945283333,35.3703833333,1021.9944000000
          -117.7944983333,35.3704066667,1020.1656000000
          -117.7944700000,35.3704300000,1018.6416000000
          -117.7944400000,35.3704516667,1016.8128000000
          -117.7944116667,35.3704733333,1014.9840000000
          -117.7943833333,35.3704966667,1013.1552000000
          -117.7943533333,35.3705166667,1011.6312000000
          -117.7943250000,35.3705383333,1009.8024000000
          -117.7942966667,35.3705600000,1007.9736000000
          -117.7942683333,35.3705833333,1006.4496000000
          -117.7942400000,35.3706050000,1004.6208000000
          -117.7942116667,35.3706283333,1002.7920000000
          -117.7941850000,35.3706500000,1001.2680000000
          -117.7941566667,35.3706716667,999.4392000000
          -117.7941300000,35.3706916667,997.9152000000
          -117.7941016667,35.3707133333,996.0864000000
          -117.7940750000,35.3707333333,994.5624000000
          -117.7940483333,35.3707533333,993.0384000000
          -117.7940200000,35.3707716667,991.5144000000
          -117.7939933333,35.3707883333,989.6856000000
          -117.7939683333,35.3708050000,987.8568000000
          -117.7939433333,35.3708200000,986.3328000000
          -117.7939166667,35.3708350000,984.5040000000
          -117.7938916667,35.3708483333,982.9800000000
          -117.7938650000,35.3708633333,981.1512000000
          -117.7938383333,35.3708766667,979.6272000000
          -117.7938133333,35.3708900000,977.7984000000
          -117.7937883333,35.3709016667,976.2744000000
          -117.7937633333,35.3709133333,974.4456000000
          -117.7937400000,35.3709250000,972.6168000000
          -117.7937166667,35.3709350000,970.4832000000
          -117.7936933333,35.3709450000,968.6544000000
          -117.7936700000,35.3709533333,966.8256000000
          -117.7936483333,35.3709616667,965.3016000000
          -117.7936266667,35.3709666667,963.4728000000
          -117.7936050000,35.3709716667,961.9488000000
          -117.7935866667,35.3709766667,960.1200000000
          -117.7935683333,35.3709816667,958.5960000000
          -117.7935533333,35.3709850000,957.0720000000
          -117.7935383333,35.3709900000,955.5480000000
          -117.7935233333,35.3709933333,954.0240000000
          -117.7935116667,35.3709983333,952.8048000000
          -117.7935000000,35.3710000000,951.5856000000
          -117.7934900000,35.3710033333,950.3664000000
          -117.7934816667,35.3710050000,949.1472000000
          -117.7934733333,35.3710050000,947.6232000000
          -117.7934666667,35.3710050000,946.4040000000
          -117.7934600000,35.3710033333,944.5752000000
          -117.7934550000,35.3710000000,943.0512000000
          -117.7934516667,35.3709966667,941.5272000000
          -117.7934500000,35.3709933333,939.6984000000
          -117.7934500000,35.3709900000,937.8696000000
          -117.7934500000,35.3709883333,936.3456000000
          -117.7934500000,35.3709883333,934.2120000000
          -117.7934516667,35.3709916667,932.0784000000
          -117.7934533333,35.3709966667,929.9448000000
          -117.7934566667,35.3710016667,928.1160000000
          -117.7934616667,35.3710050000,926.2872000000
          -117.7934666667,35.3710100000,924.4584000000
          -117.7934716667,35.3710150000,922.9344000000
          -117.7934750000,35.3710183333,921.7152000000
          -117.7934800000,35.3710216667,920.1912000000
          -117.7934833333,35.3710250000,918.9720000000
          -117.7934883333,35.3710283333,917.4480000000
          -117.7934916667,35.3710316667,916.2288000000
          -117.7934933333,35.3710333333,914.7048000000
          -117.7934950000,35.3710366667,913.4856000000
          -117.7934966667,35.3710400000,912.2664000000
          -117.7934983333,35.3710433333,911.0472000000
          -117.7935000000,35.3710466667,909.8280000000
          -117.7935016667,35.3710533333,908.9136000000
          -117.7935033333,35.3710600000,907.6944000000
          -117.7935050000,35.3710666667,906.4752000000
          -117.7935083333,35.3710766667,905.5608000000
          -117.7935100000,35.3710883333,904.6464000000
          -117.7935133333,35.3711000000,903.4272000000
          -117.7935150000,35.3711133333,902.5128000000
          -117.7935183333,35.3711266667,901.2936000000
          -117.7935200000,35.3711416667,900.0744000000
          -117.7935233333,35.3711566667,898.8552000000
          -117.7935266667,35.3711716667,897.6360000000
          -117.7935283333,35.3711883333,896.4168000000
          -117.7935283333,35.3712050000,895.1976000000
          -117.7935283333,35.3712250000,893.9784000000
          -117.7935266667,35.3712450000,892.7592000000
          -117.7935233333,35.3712650000,891.2352000000
          -117.7935183333,35.3712850000,889.7112000000
          -117.7935100000,35.3713033333,888.1872000000
          -117.7935016667,35.3713233333,886.3584000000
          -117.7934916667,35.3713416667,884.8344000000
          -117.7934800000,35.3713583333,883.0056000000
          -117.7934683333,35.3713750000,881.1768000000
          -117.7934550000,35.3713916667,879.3480000000
          -117.7934416667,35.3714100000,877.8240000000
          -117.7934250000,35.3714266667,875.9952000000
          -117.7934066667,35.3714433333,874.1664000000
          -117.7933883333,35.3714583333,872.6424000000
          -117.7933683333,35.3714716667,870.5088000000
          -117.7933483333,35.3714850000,868.6800000000
          -117.7933266667,35.3714983333,866.8512000000
          -117.7933016667,35.3715100000,865.0224000000
          -117.7932783333,35.3715200000,863.1936000000
          -117.7932316667,35.3715383333,859.5360000000
          -117.7932083333,35.3715466667,857.7072000000
          -117.7931850000,35.3715516667,856.1832000000
          -117.7931600000,35.3715566667,854.3544000000
          -117.7931366667,35.3715600000,852.8304000000
          -117.7931150000,35.3715616667,851.3064000000
          -117.7930916667,35.3715633333,849.4776000000
          -117.7930683333,35.3715616667,847.9536000000
          -117.7930466667,35.3715616667,846.1248000000
          -117.7930283333,35.3715583333,844.2960000000
          -117.7930100000,35.3715550000,842.4672000000
          -117.7929916667,35.3715500000,840.9432000000
          -117.7929733333,35.3715450000,839.1144000000
          -117.7929566667,35.3715400000,837.2856000000
          -117.7929400000,35.3715366667,835.4568000000
          -117.7929233333,35.3715333333,833.9328000000
          -117.7929066667,35.3715300000,832.4088000000
          -117.7928900000,35.3715250000,830.5800000000
          -117.7928766667,35.3715200000,829.0560000000
          -117.7928616667,35.3715150000,827.5320000000
          -117.7928500000,35.3715100000,825.7032000000
          -117.7928383333,35.3715066667,824.1792000000
          -117.7928300000,35.3715000000,822.3504000000
          -117.7928216667,35.3714950000,820.8264000000
          -117.7928166667,35.3714900000,819.3024000000
          -117.7928133333,35.3714850000,817.4736000000
          -117.7928116667,35.3714816667,815.9496000000
          -117.7928100000,35.3714783333,814.7304000000
          -117.7928100000,35.3714750000,813.2064000000
          -117.7928100000,35.3714700000,811.6824000000
          -117.7928116667,35.3714650000,810.1584000000
          -117.7928150000,35.3714616667,808.6344000000
          -117.7928200000,35.3714583333,806.8056000000
          -117.7928250000,35.3714550000,805.2816000000
          -117.7928333333,35.3714533333,803.7576000000
          -117.7928400000,35.3714533333,801.9288000000
          -117.7928483333,35.3714550000,800.1000000000
          -117.7928566667,35.3714566667,798.5760000000
          -117.7928650000,35.3714583333,796.7472000000
          -117.7928750000,35.3714600000,794.6136000000
          -117.7928850000,35.3714616667,792.7848000000
          -117.7928966667,35.3714633333,790.9560000000
          -117.7929083333,35.3714666667,789.1272000000
          -117.7929183333,35.3714700000,786.9936000000
          -117.7929283333,35.3714750000,784.8600000000
          -117.7929383333,35.3714800000,783.0312000000
          -117.7929483333,35.3714850000,780.8976000000
          -117.7929583333,35.3714900000,778.7640000000
          -117.7929666667,35.3714966667,776.9352000000
          -117.7929750000,35.3715033333,775.1064000000
          -117.7929816667,35.3715116667,772.9728000000
          -117.7929866667,35.3715200000,771.1440000000
          -117.7929933333,35.3715283333,769.0104000000
          -117.7930000000,35.3715366667,766.8768000000
          -117.7930083333,35.3715450000,765.0480000000
          -117.7930150000,35.3715533333,763.2192000000
          -117.7930216667,35.3715633333,761.3904000000
          -117.7930266667,35.3715733333,759.2568000000
          -117.7930333333,35.3715850000,757.4280000000
          -117.7930366667,35.3715966667,755.5992000000
          -117.7930400000,35.3716083333,753.4656000000
          -117.7930433333,35.3716200000,751.3320000000
          -117.7930450000,35.3716333333,749.5032000000
          -117.7930466667,35.3716466667,747.3696000000
          -117.7930466667,35.3716616667,745.5408000000
          -117.7930483333,35.3716766667,743.4072000000
          -117.7930500000,35.3716900000,741.5784000000
          -117.7930500000,35.3717050000,739.4448000000
          -117.7930500000,35.3717183333,737.6160000000
          -117.7930500000,35.3717333333,735.4824000000
          -117.7930483333,35.3717466667,733.3488000000
          -117.7930466667,35.3717616667,731.5200000000
          -117.7930450000,35.3717750000,729.6912000000
          -117.7930450000,35.3717900000,727.8624000000
          -117.7930450000,35.3718033333,726.0336000000
          -117.7930433333,35.3718166667,723.9000000000
          -117.7930416667,35.3718300000,721.7664000000
          -117.7930400000,35.3718450000,719.9376000000
          -117.7930383333,35.3718583333,717.8040000000
          -117.7930350000,35.3718700000,715.6704000000
          -117.7930333333,35.3718833333,713.8416000000
          -117.7930300000,35.3718950000,711.7080000000
          -117.7930266667,35.3719066667,709.5744000000
          -117.7930233333,35.3719200000,707.4408000000
          -117.7930166667,35.3719333333,705.3072000000
          -117.7930116667,35.3719466667,703.1736000000
          -117.7930066667,35.3719583333,701.0400000000
          -117.7930000000,35.3719716667,698.9064000000
          -117.7929933333,35.3719833333,696.7728000000
          -117.7929850000,35.3719966667,694.6392000000
          -117.7929750000,35.3720100000,692.5056000000
          -117.7929650000,35.3720233333,690.6768000000
          -117.7929533333,35.3720383333,688.5432000000
          -117.7929400000,35.3720533333,686.7144000000
          -117.7929250000,35.3720683333,684.5808000000
          -117.7929066667,35.3720833333,682.4472000000
          -117.7928883333,35.3721000000,680.3136000000
          -117.7928683333,35.3721166667,677.8752000000
          -117.7928466667,35.3721316667,675.7416000000
          -117.7928233333,35.3721466667,673.6080000000
          -117.7927983333,35.3721600000,671.1696000000
          -117.7927716667,35.3721733333,669.3408000000
          -117.7927466667,35.3721866667,666.9024000000
          -117.7927216667,35.3721966667,664.7688000000
          -117.7926950000,35.3722050000,662.6352000000
          -117.7926683333,35.3722133333,660.5016000000
          -117.7926400000,35.3722200000,658.6728000000
          -117.7926116667,35.3722266667,656.8440000000
          -117.7925850000,35.3722333333,654.7104000000
          -117.7925583333,35.3722383333,652.8816000000
          -117.7925316667,35.3722416667,651.3576000000
          -117.7925050000,35.3722450000,649.8336000000
          -117.7924783333,35.3722483333,648.0048000000
          -117.7924533333,35.3722500000,646.7856000000
          -117.7924300000,35.3722516667,645.2616000000
          -117.7924066667,35.3722516667,643.7376000000
          -117.7923850000,35.3722500000,642.2136000000
          -117.7923633333,35.3722483333,640.6896000000
        </coordinates>
      </LineString>
    </MultiGeometry>
  </Placemark>
  <Placemark>
    <name>Altitude Scale</name>
    <styleUrl>#WhiteLine</styleUrl>
    <MultiGeometry>
      <LineString>
        <altitudeMode>relativeToGround</altitudeMode>
        <coordinates>
          -117.8184483333,35.3473733333,3200.4000000000
          -117.8184483333,35.3473733333,3048.0000000000
          -117.8181483333,35.3473733333,3048.0000000000
          -117.8187483333,35.3473733333,3048.0000000000
          -117.8184483333,35.3473733333,3048.0000000000
          -117.8184483333,35.3476733333,3048.0000000000
          -117.8184483333,35.3470733333,3048.0000000000
          -117.8184483333,35.3473733333,3048.0000000000
          -117.8184483333,35.3473733333,2743.2000000000
          -117.8181483333,35.3473733333,2743.2000000000
          -117.8187483333,35.3473733333,2743.2000000000
          -117.8184483333,35.3473733333,2743.2000000000
          -117.8184483333,35.3476733333,2743.2000000000
          -117.8184483333,35.3470733333,2743.2000000000
          -117.8184483333,35.3473733333,2743.2000000000
          -117.8184483333,35.3473733333,2438.4000000000
          -117.8181483333,35.3473733333,2438.4000000000
          -117.8187483333,35.3473733333,2438.4000000000
          -117.8184483333,35.3473733333,2438.4000000000
          -117.8184483333,35.3476733333,2438.4000000000
          -117.8184483333,35.3470733333,2438.4000000000
          -117.8184483333,35.3473733333,2438.4000000000
          -117.8184483333,35.3473733333,2133.6000000000
          -117.8181483333,35.3473733333,2133.6000000000
          -117.8187483333,35.3473733333,2133.6000000000
          -117.8184483333,35.3473733333,2133.6000000000
          -117.8184483333,35.3476733333,2133.6000000000
          -117.8184483333,35.3470733333,2133.6000000000
          -117.8184483333,35.3473733333,2133.6000000000
          -117.8184483333,35.3473733333,1828.8000000000
          -117.8181483333,35.3473733333,1828.8000000000
          -117.8187483333,35.3473733333,1828.8000000000
          -117.8184483333,35.3473733333,1828.8000000000
          -117.8184483333,35.3476733333,1828.8000000000
          -117.8184483333,35.3470733333,1828.8000000000
          -117.8184483333,35.3473733333,1828.8000000000
          -117.8184483333,35.3473733333,1524.0000000000
          -117.8181483333,35.3473733333,1524.0000000000
          -117.8187483333,35.3473733333,1524.0000000000
          -117.8184483333,35.3473733333,1524.0000000000
          -117.8184483333,35.3476733333,1524.0000000000
          -117.8184483333,35.3470733333,1524.0000000000
          -117.8184483333,35.3473733333,1524.0000000000
          -117.8184483333,35.3473733333,1219.2000000000
          -117.8181483333,35.3473733333,1219.2000000000
          -117.8187483333,35.3473733333,1219.2000000000
          -117.8184483333,35.3473733333,1219.2000000000
          -117.8184483333,35.3476733333,1219.2000000000
          -117.8184483333,35.3470733333,1219.2000000000
          -117.8184483333,35.3473733333,1219.2000000000
          -117.8184483333,35.3473733333,914.4000000000
          -117.8181483333,35.3473733333,914.4000000000
          -117.8187483333,35.3473733333,914.4000000000
          -117.8184483333,35.3473733333,914.4000000000
          -117.8184483333,35.3476733333,914.4000000000
          -117.8184483333,35.3470733333,914.4000000000
          -117.8184483333,35.3473733333,914.4000000000
          -117.8184483333,35.3473733333,609.6000000000
          -117.8181483333,35.3473733333,609.6000000000
          -117.8187483333,35.3473733333,609.6000000000
          -117.8184483333,35.3473733333,609.6000000000
          -117.8184483333,35.3476733333,609.6000000000
          -117.8184483333,35.3470733333,609.6000000000
          -117.8184483333,35.3473733333,609.6000000000
          -117.8184483333,35.3473733333,304.8000000000
          -117.8181483333,35.3473733333,304.8000000000
          -117.8187483333,35.3473733333,304.8000000000
          -117.8184483333,35.3473733333,304.8000000000
          -117.8184483333,35.3476733333,304.8000000000
          -117.8184483333,35.3470733333,304.8000000000
          -117.8184483333,35.3473733333,304.8000000000
          -117.8184483333,35.3473733333,-0.0000000000
        </coordinates>
      </LineString>
    </MultiGeometry>
  </Placemark>
  <Placemark>
    <name>Scale shows 1000 foot intervals</name>
    <styleUrl>#WhiteLabelColorWithNoIcon</styleUrl>
    <Point>
        <altitudeMode>absolute</altitudeMode>
        <coordinates> -117.8184483333,35.3473733333,3981.6024000000 </coordinates>
    </Point>
  </Placemark>
</Document>
</kml>

