<?xml version="1.0" encoding="UTF-8"?>
<kml xmlns="http://www.opengis.net/kml/2.2">
<Document>
  <name>BZB 2/SIMPS 2/3-20-22</name>
  <open>1</open>
  <Style id="RedLine">
    <LineStyle>
      <color>ff0000f5</color>
      <width>3</width>
    </LineStyle>
  </Style>
  <Style id="BlueLine">
    <LineStyle>
      <color>ffff8000</color>
      <width>3</width>
    </LineStyle>
  </Style>
  <Style id="YellowLine">
    <LineStyle>
      <color>ff00f5f5</color>
      <width>3</width>
    </LineStyle>
  </Style>
  <Style id="OrangeLine">
    <LineStyle>
      <color>ff0080ff</color>
      <width>3</width>
    </LineStyle>
  </Style>
  <Style id="GreenLine">
    <LineStyle>
      <color>ff00d600</color>
      <width>3</width>
    </LineStyle>
  </Style>
  <Style id="BlackLine">
    <LineStyle>
      <color>ff000000</color>
      <width>3</width>
    </LineStyle>
  </Style>
  <Style id="WhiteLine">
    <LineStyle>
      <color>ffffffff</color>
      <width>2</width>
    </LineStyle>
  </Style>
  <Style id="WhiteLabelColorWithNoIcon">
    <LabelStyle>
      <color>ffffffff</color>
    </LabelStyle>
    <IconStyle>
      <color>00000000</color>
    </IconStyle>
  </Style>
  <LookAt>
    <longitude>-117.8200866667</longitude>
    <latitude>35.3493900000</latitude>
    <altitude>1014.2220000000</altitude>
    <range>4056.8880000000</range>
    <tilt>83.0000000000</tilt>
    <heading>0.0000000000</heading>
    <altitudeMode>relativeToGround</altitudeMode>
  </LookAt>
  <Placemark>
    <name>Motor Burn</name>
    <styleUrl>#RedLine</styleUrl>
    <MultiGeometry>
      <LineString>
        <altitudeMode>absolute</altitudeMode>
        <coordinates>
          -117.8090916667,35.3469633333,633.9840000000
          -117.8090916667,35.3469616667,633.9840000000
          -117.8090933333,35.3469616667,633.9840000000
          -117.8090933333,35.3469616667,633.6792000000
          -117.8090933333,35.3469600000,633.6792000000
          -117.8090950000,35.3469600000,633.6792000000
          -117.8090950000,35.3469600000,633.3744000000
          -117.8090950000,35.3469583333,633.3744000000
          -117.8090950000,35.3469600000,633.3744000000
          -117.8090950000,35.3469600000,634.5936000000
          -117.8090950000,35.3469583333,637.6416000000
          -117.8090950000,35.3469583333,642.2136000000
          -117.8090950000,35.3469566667,648.6144000000
          -117.8090950000,35.3469600000,666.2928000000
          -117.8091000000,35.3469650000,677.5704000000
          -117.8091083333,35.3469716667,690.3720000000
          -117.8091250000,35.3469800000,704.6976000000
          -117.8091500000,35.3469883333,720.2424000000
          -117.8091850000,35.3469966667,737.6160000000
          -117.8092250000,35.3470050000,756.2088000000
          -117.8092716667,35.3470150000,776.6304000000
          -117.8093250000,35.3470266667,798.2712000000
          -117.8093833333,35.3470416667,821.4360000000
          -117.8094500000,35.3470600000,846.1248000000
          -117.8095250000,35.3470766667,872.3376000000
          -117.8096066667,35.3470950000,900.0744000000
          -117.8096933333,35.3471150000,929.6400000000
          -117.8097866667,35.3471366667,960.1200000000
          -117.8098900000,35.3471616667,992.4288000000
          -117.8100000000,35.3471866667,1026.2616000000
          -117.8101150000,35.3472116667,1061.6184000000
          -117.8102383333,35.3472400000,1098.4992000000
        </coordinates>
      </LineString>
    </MultiGeometry>
  </Placemark>
  <Placemark>
    <name>Coast Phase</name>
    <styleUrl>#BlackLine</styleUrl>
    <MultiGeometry>
      <LineString>
        <altitudeMode>absolute</altitudeMode>
        <coordinates>
          -117.8102383333,35.3472400000,1098.4992000000
          -117.8102383333,35.3472400000,1098.4992000000
          -117.8103650000,35.3472700000,1136.2944000000
          -117.8104966667,35.3473016667,1174.0896000000
          -117.8106266667,35.3473333333,1211.8848000000
          -117.8107566667,35.3473633333,1248.7656000000
          -117.8108866667,35.3473933333,1285.0368000000
          -117.8110150000,35.3474233333,1321.0032000000
          -117.8111433333,35.3474550000,1356.0552000000
          -117.8112700000,35.3474850000,1390.8024000000
          -117.8113966667,35.3475133333,1424.9400000000
          -117.8115233333,35.3475433333,1458.4680000000
          -117.8116483333,35.3475733333,1491.6912000000
          -117.8117733333,35.3476016667,1524.0000000000
          -117.8118966667,35.3476316667,1556.0040000000
          -117.8120216667,35.3476600000,1587.3984000000
          -117.8121450000,35.3476883333,1618.4880000000
          -117.8122666667,35.3477166667,1648.9680000000
          -117.8123900000,35.3477450000,1678.8384000000
          -117.8125116667,35.3477733333,1708.0992000000
          -117.8126316667,35.3478016667,1737.0552000000
          -117.8127533333,35.3478300000,1765.7064000000
          -117.8128733333,35.3478583333,1793.4432000000
          -117.8129933333,35.3478850000,1820.8752000000
          -117.8131133333,35.3479133333,1848.0024000000
          -117.8132316667,35.3479400000,1874.2152000000
          -117.8133500000,35.3479683333,1900.4280000000
          -117.8134683333,35.3479950000,1926.0312000000
          -117.8135866667,35.3480216667,1951.0248000000
          -117.8137033333,35.3480483333,1975.4088000000
          -117.8138216667,35.3480750000,1999.4880000000
          -117.8139383333,35.3481016667,2023.2624000000
          -117.8140550000,35.3481283333,2046.4272000000
          -117.8141700000,35.3481550000,2069.2872000000
          -117.8142866667,35.3481816667,2091.5376000000
          -117.8144016667,35.3482083333,2113.4832000000
          -117.8145166667,35.3482333333,2134.8192000000
          -117.8146316667,35.3482600000,2155.8504000000
          -117.8147466667,35.3482850000,2176.2720000000
          -117.8148600000,35.3483116667,2196.0840000000
          -117.8149750000,35.3483366667,2215.8960000000
          -117.8150900000,35.3483616667,2234.7936000000
          -117.8152033333,35.3483866667,2253.6912000000
          -117.8153183333,35.3484100000,2271.9792000000
          -117.8154316667,35.3484350000,2289.6576000000
          -117.8155450000,35.3484583333,2307.0312000000
          -117.8156566667,35.3484816667,2324.1000000000
          -117.8157683333,35.3485066667,2340.5592000000
          -117.8158800000,35.3485300000,2356.7136000000
          -117.8159916667,35.3485550000,2372.2584000000
          -117.8161033333,35.3485783333,2387.4984000000
          -117.8162150000,35.3486016667,2402.4336000000
          -117.8163266667,35.3486266667,2416.7592000000
          -117.8164383333,35.3486500000,2430.7800000000
          -117.8165483333,35.3486733333,2444.1912000000
          -117.8166600000,35.3486966667,2457.2976000000
          -117.8167716667,35.3487200000,2470.0992000000
          -117.8168816667,35.3487433333,2482.2912000000
          -117.8169916667,35.3487650000,2494.1784000000
          -117.8171016667,35.3487883333,2505.4560000000
          -117.8172100000,35.3488100000,2516.7336000000
          -117.8173183333,35.3488333333,2527.0968000000
          -117.8174283333,35.3488566667,2537.4600000000
          -117.8175366667,35.3488783333,2547.2136000000
          -117.8176450000,35.3489016667,2556.6624000000
          -117.8177516667,35.3489233333,2565.5016000000
          -117.8178600000,35.3489466667,2574.3408000000
          -117.8179683333,35.3489683333,2582.2656000000
          -117.8180750000,35.3489900000,2590.1904000000
          -117.8181833333,35.3490133333,2597.5056000000
          -117.8182900000,35.3490350000,2604.2112000000
          -117.8183983333,35.3490566667,2610.9168000000
          -117.8185050000,35.3490783333,2617.0128000000
          -117.8186133333,35.3491000000,2622.8040000000
          -117.8187200000,35.3491200000,2627.9856000000
          -117.8188266667,35.3491416667,2633.1672000000
          -117.8189333333,35.3491633333,2637.7392000000
          -117.8190383333,35.3491833333,2642.0064000000
          -117.8191450000,35.3492050000,2645.6640000000
          -117.8192500000,35.3492266667,2649.0168000000
          -117.8193550000,35.3492466667,2652.0648000000
          -117.8194616667,35.3492666667,2654.8080000000
          -117.8195650000,35.3492883333,2656.9416000000
          -117.8196700000,35.3493083333,2658.7704000000
          -117.8197750000,35.3493283333,2660.2944000000
          -117.8198783333,35.3493483333,2661.2088000000
          -117.8199833333,35.3493700000,2661.8184000000
          -117.8200866667,35.3493900000,2662.1232000000
          -117.8201900000,35.3494100000,2662.1232000000
        </coordinates>
      </LineString>
    </MultiGeometry>
  </Placemark>
  <Placemark>
    <name>Drogue</name>
    <styleUrl>#YellowLine</styleUrl>
    <MultiGeometry>
      <LineString>
        <altitudeMode>absolute</altitudeMode>
        <coordinates>
          -117.8201900000,35.3494100000,2662.1232000000
          -117.8201900000,35.3494100000,2662.1232000000
          -117.8202933333,35.3494300000,2661.5136000000
          -117.8204033333,35.3494516667,2660.2944000000
          -117.8205150000,35.3494750000,2659.0752000000
          -117.8206083333,35.3494900000,2657.8560000000
          -117.8206800000,35.3494950000,2657.5512000000
          -117.8207333333,35.3495016667,2657.5512000000
          -117.8207983333,35.3494800000,2655.4176000000
          -117.8208200000,35.3494616667,2654.8080000000
          -117.8208466667,35.3494516667,2655.7224000000
          -117.8208750000,35.3494466667,2657.8560000000
          -117.8209150000,35.3494433333,2660.2944000000
          -117.8209700000,35.3494450000,2662.1232000000
          -117.8211816667,35.3494316667,2656.3320000000
          -117.8212783333,35.3494416667,2651.1504000000
          -117.8213866667,35.3494700000,2645.9688000000
          -117.8214833333,35.3494933333,2640.1776000000
          -117.8215750000,35.3495200000,2633.7768000000
          -117.8216600000,35.3495333333,2626.4616000000
          -117.8217366667,35.3495350000,2620.3656000000
          -117.8218266667,35.3495450000,2613.3552000000
          -117.8219100000,35.3495383333,2606.9544000000
          -117.8219850000,35.3495283333,2600.5536000000
          -117.8220533333,35.3495183333,2594.4576000000
          -117.8221116667,35.3495016667,2588.9712000000
          -117.8221766667,35.3494883333,2583.4848000000
          -117.8222383333,35.3494816667,2577.9984000000
          -117.8223000000,35.3494800000,2572.8168000000
          -117.8223633333,35.3494800000,2566.1112000000
          -117.8224266667,35.3494733333,2558.7960000000
          -117.8224833333,35.3494650000,2551.7856000000
          -117.8225383333,35.3494583333,2545.3848000000
          -117.8225900000,35.3494533333,2538.6792000000
          -117.8226350000,35.3494516667,2531.6688000000
          -117.8226766667,35.3494516667,2524.0488000000
          -117.8227116667,35.3494533333,2517.0384000000
          -117.8227350000,35.3494516667,2510.0280000000
          -117.8227550000,35.3494416667,2503.0176000000
          -117.8227766667,35.3494233333,2495.7024000000
          -117.8228033333,35.3494000000,2488.9968000000
          -117.8228350000,35.3493700000,2481.6816000000
          -117.8228733333,35.3493416667,2474.3664000000
          -117.8229216667,35.3493166667,2467.0512000000
          -117.8229716667,35.3493016667,2460.3456000000
          -117.8230216667,35.3492950000,2454.2496000000
          -117.8230716667,35.3493000000,2448.1536000000
          -117.8231083333,35.3493066667,2441.7528000000
          -117.8231350000,35.3493116667,2435.3520000000
          -117.8231516667,35.3493133333,2428.6464000000
          -117.8231583333,35.3493166667,2421.6360000000
          -117.8231616667,35.3493166667,2414.3208000000
          -117.8231600000,35.3493100000,2407.3104000000
          -117.8231566667,35.3493000000,2399.6904000000
          -117.8231533333,35.3492866667,2392.3752000000
          -117.8231516667,35.3492700000,2385.0600000000
          -117.8231550000,35.3492483333,2377.7448000000
          -117.8231566667,35.3492200000,2370.7344000000
          -117.8231600000,35.3491933333,2363.7240000000
          -117.8231683333,35.3491666667,2356.7136000000
          -117.8231850000,35.3491416667,2350.0080000000
          -117.8232083333,35.3491150000,2343.3024000000
          -117.8232383333,35.3490916667,2336.9016000000
          -117.8232683333,35.3490750000,2329.8912000000
          -117.8232933333,35.3490650000,2322.8808000000
          -117.8233150000,35.3490616667,2315.8704000000
          -117.8233333333,35.3490633333,2308.8600000000
          -117.8233433333,35.3490666667,2302.1544000000
          -117.8233466667,35.3490700000,2295.4488000000
          -117.8233416667,35.3490700000,2289.0480000000
          -117.8233333333,35.3490666667,2282.3424000000
          -117.8233233333,35.3490550000,2275.9416000000
          -117.8233166667,35.3490400000,2269.5408000000
          -117.8233116667,35.3490250000,2263.1400000000
          -117.8233000000,35.3490066667,2256.4344000000
          -117.8232883333,35.3489833333,2249.4240000000
          -117.8232766667,35.3489616667,2243.0232000000
          -117.8232683333,35.3489350000,2236.6224000000
          -117.8232683333,35.3489050000,2230.5264000000
          -117.8232716667,35.3488766667,2224.4304000000
          -117.8232800000,35.3488516667,2218.3344000000
          -117.8232916667,35.3488216667,2211.6288000000
          -117.8233033333,35.3487883333,2204.9232000000
          -117.8233066667,35.3487533333,2197.9128000000
          -117.8233033333,35.3487283333,2190.5976000000
          -117.8233100000,35.3487100000,2183.5872000000
          -117.8233216667,35.3486933333,2176.8816000000
          -117.8233316667,35.3486750000,2170.4808000000
          -117.8233450000,35.3486566667,2164.3848000000
          -117.8233616667,35.3486383333,2157.9840000000
          -117.8233783333,35.3486233333,2151.2784000000
          -117.8233833333,35.3486116667,2144.2680000000
          -117.8233800000,35.3486016667,2137.5624000000
          -117.8233733333,35.3485900000,2131.1616000000
          -117.8233650000,35.3485783333,2124.4560000000
          -117.8233600000,35.3485650000,2116.8360000000
          -117.8233616667,35.3485516667,2109.2160000000
          -117.8233633333,35.3485416667,2102.2056000000
          -117.8233633333,35.3485333333,2094.8904000000
          -117.8233633333,35.3485233333,2087.2704000000
          -117.8233616667,35.3485116667,2079.9552000000
          -117.8233566667,35.3485000000,2072.9448000000
          -117.8233466667,35.3484933333,2065.9344000000
          -117.8233383333,35.3484883333,2058.9240000000
          -117.8233350000,35.3484866667,2052.2184000000
          -117.8233350000,35.3484866667,2045.2080000000
          -117.8233333333,35.3484850000,2038.1976000000
          -117.8233283333,35.3484800000,2030.8824000000
          -117.8233233333,35.3484750000,2023.8720000000
          -117.8233150000,35.3484683333,2016.8616000000
          -117.8233033333,35.3484633333,2010.1560000000
          -117.8232900000,35.3484583333,2003.4504000000
          -117.8232783333,35.3484533333,1996.7448000000
          -117.8232650000,35.3484483333,1989.7344000000
          -117.8232500000,35.3484433333,1982.7240000000
          -117.8232350000,35.3484383333,1976.0184000000
          -117.8232233333,35.3484350000,1969.0080000000
          -117.8232100000,35.3484300000,1961.9976000000
          -117.8231966667,35.3484250000,1954.6824000000
          -117.8231833333,35.3484166667,1947.6720000000
          -117.8231616667,35.3484083333,1940.9664000000
          -117.8231400000,35.3484033333,1933.9560000000
          -117.8231200000,35.3484016667,1927.2504000000
          -117.8231033333,35.3483983333,1920.5448000000
          -117.8230900000,35.3483900000,1913.2296000000
          -117.8230750000,35.3483783333,1906.2192000000
          -117.8230550000,35.3483666667,1899.2088000000
          -117.8230300000,35.3483566667,1892.1984000000
          -117.8230066667,35.3483533333,1885.4928000000
          -117.8229850000,35.3483500000,1878.4824000000
          -117.8229650000,35.3483433333,1871.4720000000
          -117.8229500000,35.3483300000,1864.1568000000
          -117.8229366667,35.3483150000,1857.1464000000
          -117.8229200000,35.3482966667,1850.1360000000
          -117.8229033333,35.3482766667,1843.4304000000
          -117.8228850000,35.3482583333,1836.7248000000
          -117.8228633333,35.3482400000,1830.0192000000
          -117.8228450000,35.3482233333,1823.3136000000
          -117.8228266667,35.3482083333,1815.9984000000
          -117.8228133333,35.3481900000,1809.2928000000
          -117.8227983333,35.3481666667,1802.2824000000
          -117.8227783333,35.3481400000,1795.2720000000
          -117.8227533333,35.3481233333,1788.5664000000
          -117.8227300000,35.3481183333,1781.8608000000
          -117.8227116667,35.3481166667,1775.4600000000
          -117.8226883333,35.3481150000,1768.4496000000
          -117.8226616667,35.3481133333,1762.0488000000
          -117.8226350000,35.3481100000,1755.6480000000
          -117.8226166667,35.3481050000,1749.5520000000
          -117.8226066667,35.3480950000,1742.8464000000
          -117.8225983333,35.3480833333,1734.9216000000
          -117.8225850000,35.3480650000,1726.6920000000
          -117.8225566667,35.3480500000,1718.7672000000
          -117.8225150000,35.3480466667,1712.3664000000
          -117.8224800000,35.3480583333,1705.6608000000
          -117.8224666667,35.3480733333,1698.0408000000
          -117.8224666667,35.3480750000,1690.4208000000
          -117.8224583333,35.3480600000,1682.4960000000
          -117.8224450000,35.3480366667,1675.1808000000
          -117.8224250000,35.3480033333,1667.8656000000
          -117.8223900000,35.3479700000,1660.2456000000
          -117.8223483333,35.3479516667,1653.2352000000
          -117.8223150000,35.3479450000,1645.9200000000
          -117.8222966667,35.3479433333,1638.6048000000
          -117.8222950000,35.3479416667,1630.3752000000
          -117.8223016667,35.3479266667,1622.1456000000
          -117.8223033333,35.3479016667,1613.6112000000
          -117.8222966667,35.3478716667,1605.6864000000
          -117.8222800000,35.3478366667,1598.3712000000
          -117.8222533333,35.3478033333,1590.1416000000
          -117.8222200000,35.3477866667,1581.9120000000
          -117.8222016667,35.3477850000,1573.3776000000
          -117.8222050000,35.3477800000,1565.1480000000
          -117.8222233333,35.3477633333,1556.9184000000
          -117.8222400000,35.3477316667,1548.6888000000
          -117.8222416667,35.3476933333,1540.4592000000
          -117.8222316667,35.3476550000,1532.2296000000
          -117.8222116667,35.3476250000,1524.0000000000
          -117.8221883333,35.3476066667,1515.4656000000
          -117.8221766667,35.3475950000,1506.9312000000
          -117.8221816667,35.3475833333,1498.3968000000
          -117.8221983333,35.3475666667,1489.8624000000
          -117.8222183333,35.3475366667,1481.3280000000
          -117.8222233333,35.3474916667,1472.4888000000
          -117.8222050000,35.3474466667,1463.9544000000
          -117.8221766667,35.3474166667,1455.4200000000
          -117.8221550000,35.3474033333,1446.2760000000
          -117.8221466667,35.3473983333,1437.4368000000
          -117.8221616667,35.3473900000,1428.5976000000
          -117.8221833333,35.3473666667,1419.7584000000
          -117.8221900000,35.3473283333,1411.5288000000
          -117.8221750000,35.3472866667,1402.9944000000
          -117.8221416667,35.3472600000,1394.1552000000
          -117.8221150000,35.3472416667,1385.9256000000
          -117.8221033333,35.3472216667,1376.7816000000
          -117.8221033333,35.3472033333,1368.5520000000
          -117.8221116667,35.3471800000,1360.0176000000
          -117.8221166667,35.3471450000,1350.5688000000
          -117.8221133333,35.3471000000,1341.7296000000
          -117.8221083333,35.3470483333,1333.5000000000
          -117.8221050000,35.3470016667,1325.5752000000
          -117.8220916667,35.3469683333,1318.2600000000
          -117.8220800000,35.3469500000,1310.9448000000
          -117.8220916667,35.3469400000,1302.7152000000
          -117.8220966667,35.3469216667,1293.8760000000
          -117.8220700000,35.3468916667,1285.0368000000
          -117.8220133333,35.3468650000,1274.3688000000
          -117.8219283333,35.3468450000,1263.3960000000
          -117.8218416667,35.3468283333,1253.3376000000
          -117.8217866667,35.3468166667,1242.3648000000
          -117.8217750000,35.3468016667,1232.6112000000
          -117.8217766667,35.3467716667,1222.8576000000
          -117.8217633333,35.3467333333,1214.3232000000
          -117.8217383333,35.3467000000,1206.0936000000
          -117.8216983333,35.3466750000,1197.5592000000
          -117.8216700000,35.3466600000,1190.2440000000
          -117.8216550000,35.3466533333,1184.1480000000
          -117.8216516667,35.3466483333,1178.0520000000
          -117.8216566667,35.3466333333,1167.3840000000
          -117.8216450000,35.3466033333,1157.6304000000
          -117.8216166667,35.3465700000,1146.9624000000
          -117.8215766667,35.3465400000,1137.5136000000
          -117.8214716667,35.3465283333,1111.9104000000
          -117.8214683333,35.3465633333,1104.5952000000
          -117.8214483333,35.3465716667,1097.5848000000
          -117.8214350000,35.3465766667,1088.4408000000
          -117.8212550000,35.3467133333,1051.5600000000
        </coordinates>
      </LineString>
    </MultiGeometry>
  </Placemark>
  <Placemark>
    <name>Main Parachute</name>
    <styleUrl>#GreenLine</styleUrl>
    <MultiGeometry>
      <LineString>
        <altitudeMode>absolute</altitudeMode>
        <coordinates>
          -117.8212550000,35.3467133333,1051.5600000000
          -117.8212550000,35.3467133333,1051.5600000000
          -117.8211966667,35.3467183333,1049.4264000000
          -117.8211166667,35.3467133333,1052.7792000000
          -117.8210100000,35.3467066667,1055.8272000000
          -117.8206433333,35.3466066667,1062.2280000000
          -117.8204583333,35.3465483333,1068.6288000000
          -117.8203283333,35.3465383333,1079.6016000000
          -117.8202000000,35.3465400000,1085.6976000000
          -117.8201133333,35.3465466667,1087.8312000000
          -117.8200433333,35.3465283333,1081.7352000000
          -117.8199650000,35.3464800000,1074.1152000000
          -117.8198583333,35.3464333333,1066.4952000000
          -117.8198000000,35.3464133333,1054.9128000000
          -117.8197200000,35.3463616667,1044.2448000000
          -117.8196416667,35.3463433333,1042.1112000000
          -117.8196383333,35.3463616667,1034.1864000000
          -117.8196500000,35.3463916667,1024.7376000000
          -117.8196783333,35.3464316667,1015.5936000000
          -117.8198183333,35.3464983333,996.6960000000
          -117.8198633333,35.3465366667,987.8568000000
          -117.8199966667,35.3465883333,972.9216000000
          -117.8201150000,35.3466433333,959.5104000000
          -117.8202366667,35.3467050000,947.6232000000
          -117.8203533333,35.3467783333,937.2600000000
          -117.8204566667,35.3468500000,925.6776000000
          -117.8205100000,35.3468933333,917.7528000000
          -117.8205450000,35.3469383333,910.7424000000
          -117.8205433333,35.3469833333,900.0744000000
          -117.8205383333,35.3470016667,894.8928000000
          -117.8205483333,35.3470233333,888.4920000000
          -117.8205600000,35.3470433333,883.0056000000
          -117.8205750000,35.3470616667,876.3000000000
          -117.8205716667,35.3470700000,871.7280000000
          -117.8205750000,35.3470750000,865.9368000000
          -117.8205766667,35.3470816667,860.1456000000
          -117.8205683333,35.3470833333,854.9640000000
          -117.8205533333,35.3470816667,850.6968000000
          -117.8205350000,35.3470783333,846.7344000000
          -117.8205100000,35.3470783333,843.0768000000
          -117.8204833333,35.3470783333,840.0288000000
          -117.8204566667,35.3470816667,836.3712000000
          -117.8204333333,35.3470850000,833.3232000000
          -117.8204066667,35.3470850000,830.2752000000
          -117.8203833333,35.3470883333,827.2272000000
          -117.8203616667,35.3470900000,824.1792000000
          -117.8203416667,35.3470933333,821.4360000000
          -117.8203233333,35.3470950000,818.3880000000
          -117.8203083333,35.3470966667,815.0352000000
          -117.8202933333,35.3470966667,811.9872000000
          -117.8202783333,35.3470950000,808.6344000000
          -117.8202650000,35.3470916667,805.2816000000
          -117.8202483333,35.3470850000,802.2336000000
          -117.8202300000,35.3470800000,798.8808000000
          -117.8202100000,35.3470716667,795.8328000000
          -117.8201883333,35.3470650000,792.7848000000
          -117.8201650000,35.3470583333,789.7368000000
          -117.8201383333,35.3470500000,786.6888000000
          -117.8201100000,35.3470433333,783.6408000000
          -117.8200800000,35.3470366667,781.2024000000
          -117.8200483333,35.3470316667,778.4592000000
          -117.8200150000,35.3470250000,776.0208000000
          -117.8199833333,35.3470200000,773.2776000000
          -117.8199500000,35.3470133333,770.8392000000
          -117.8199183333,35.3470083333,768.0960000000
          -117.8198866667,35.3470000000,765.6576000000
          -117.8198550000,35.3469933333,762.9144000000
          -117.8198250000,35.3469850000,760.4760000000
          -117.8197950000,35.3469750000,758.0376000000
          -117.8197650000,35.3469666667,755.2944000000
          -117.8197350000,35.3469566667,752.8560000000
          -117.8197066667,35.3469483333,750.1128000000
          -117.8196800000,35.3469383333,747.6744000000
          -117.8196566667,35.3469300000,745.2360000000
          -117.8196333333,35.3469200000,742.4928000000
          -117.8196100000,35.3469100000,739.7496000000
          -117.8195883333,35.3469016667,737.3112000000
          -117.8195666667,35.3468916667,734.8728000000
          -117.8195450000,35.3468833333,732.7392000000
          -117.8195250000,35.3468750000,730.3008000000
          -117.8195050000,35.3468683333,727.8624000000
          -117.8194850000,35.3468616667,725.4240000000
          -117.8194650000,35.3468550000,722.9856000000
          -117.8194466667,35.3468483333,720.5472000000
          -117.8194266667,35.3468416667,718.4136000000
          -117.8194083333,35.3468350000,715.9752000000
          -117.8193916667,35.3468300000,713.5368000000
          -117.8193750000,35.3468233333,711.0984000000
          -117.8193566667,35.3468166667,708.6600000000
          -117.8193383333,35.3468100000,706.2216000000
          -117.8193183333,35.3468033333,703.7832000000
          -117.8193000000,35.3467966667,701.6496000000
          -117.8192816667,35.3467916667,698.9064000000
          -117.8192616667,35.3467850000,696.4680000000
          -117.8192416667,35.3467800000,694.0296000000
          -117.8192233333,35.3467750000,691.2864000000
          -117.8192050000,35.3467733333,688.8480000000
          -117.8191850000,35.3467733333,686.1048000000
          -117.8191666667,35.3467733333,683.3616000000
          -117.8191466667,35.3467750000,680.6184000000
          -117.8191266667,35.3467766667,677.8752000000
          -117.8191050000,35.3467816667,675.1320000000
          -117.8190850000,35.3467866667,672.3888000000
          -117.8190616667,35.3467933333,669.6456000000
          -117.8190383333,35.3468000000,667.2072000000
          -117.8190133333,35.3468083333,664.4640000000
          -117.8189866667,35.3468183333,662.0256000000
          -117.8189600000,35.3468283333,659.2824000000
          -117.8189300000,35.3468383333,656.8440000000
          -117.8189000000,35.3468466667,654.1008000000
          -117.8188700000,35.3468550000,651.3576000000
          -117.8188366667,35.3468650000,648.6144000000
          -117.8188033333,35.3468716667,645.8712000000
          -117.8187683333,35.3468800000,643.4328000000
          -117.8187333333,35.3468850000,640.9944000000
          -117.8186983333,35.3468900000,638.2512000000
          -117.8186633333,35.3468933333,635.5080000000
          -117.8186300000,35.3468966667,632.7648000000
          -117.8185933333,35.3468983333,630.6312000000
          -117.8185600000,35.3469000000,627.8880000000
          -117.8185250000,35.3468983333,625.4496000000
          -117.8184933333,35.3468983333,622.7064000000
          -117.8184616667,35.3468950000,619.9632000000
          -117.8184333333,35.3468916667,617.5248000000
          -117.8184066667,35.3468883333,614.7816000000
          -117.8183800000,35.3468833333,612.0384000000
          -117.8183433333,35.3468900000,607.1616000000
        </coordinates>
      </LineString>
    </MultiGeometry>
  </Placemark>
  <Placemark>
    <name>Altitude Scale</name>
    <styleUrl>#WhiteLine</styleUrl>
    <MultiGeometry>
      <LineString>
        <altitudeMode>relativeToGround</altitudeMode>
        <coordinates>
          -117.8200866667,35.3493900000,2286.0000000000
          -117.8200866667,35.3493900000,2133.6000000000
          -117.8197866667,35.3493900000,2133.6000000000
          -117.8203866667,35.3493900000,2133.6000000000
          -117.8200866667,35.3493900000,2133.6000000000
          -117.8200866667,35.3496900000,2133.6000000000
          -117.8200866667,35.3490900000,2133.6000000000
          -117.8200866667,35.3493900000,2133.6000000000
          -117.8200866667,35.3493900000,1828.8000000000
          -117.8197866667,35.3493900000,1828.8000000000
          -117.8203866667,35.3493900000,1828.8000000000
          -117.8200866667,35.3493900000,1828.8000000000
          -117.8200866667,35.3496900000,1828.8000000000
          -117.8200866667,35.3490900000,1828.8000000000
          -117.8200866667,35.3493900000,1828.8000000000
          -117.8200866667,35.3493900000,1524.0000000000
          -117.8197866667,35.3493900000,1524.0000000000
          -117.8203866667,35.3493900000,1524.0000000000
          -117.8200866667,35.3493900000,1524.0000000000
          -117.8200866667,35.3496900000,1524.0000000000
          -117.8200866667,35.3490900000,1524.0000000000
          -117.8200866667,35.3493900000,1524.0000000000
          -117.8200866667,35.3493900000,1219.2000000000
          -117.8197866667,35.3493900000,1219.2000000000
          -117.8203866667,35.3493900000,1219.2000000000
          -117.8200866667,35.3493900000,1219.2000000000
          -117.8200866667,35.3496900000,1219.2000000000
          -117.8200866667,35.3490900000,1219.2000000000
          -117.8200866667,35.3493900000,1219.2000000000
          -117.8200866667,35.3493900000,914.4000000000
          -117.8197866667,35.3493900000,914.4000000000
          -117.8203866667,35.3493900000,914.4000000000
          -117.8200866667,35.3493900000,914.4000000000
          -117.8200866667,35.3496900000,914.4000000000
          -117.8200866667,35.3490900000,914.4000000000
          -117.8200866667,35.3493900000,914.4000000000
          -117.8200866667,35.3493900000,609.6000000000
          -117.8197866667,35.3493900000,609.6000000000
          -117.8203866667,35.3493900000,609.6000000000
          -117.8200866667,35.3493900000,609.6000000000
          -117.8200866667,35.3496900000,609.6000000000
          -117.8200866667,35.3490900000,609.6000000000
          -117.8200866667,35.3493900000,609.6000000000
          -117.8200866667,35.3493900000,304.8000000000
          -117.8197866667,35.3493900000,304.8000000000
          -117.8203866667,35.3493900000,304.8000000000
          -117.8200866667,35.3493900000,304.8000000000
          -117.8200866667,35.3496900000,304.8000000000
          -117.8200866667,35.3490900000,304.8000000000
          -117.8200866667,35.3493900000,304.8000000000
          -117.8200866667,35.3493900000,-0.0000000000
        </coordinates>
      </LineString>
    </MultiGeometry>
  </Placemark>
  <Placemark>
    <name>Scale shows 1000 foot intervals</name>
    <styleUrl>#WhiteLabelColorWithNoIcon</styleUrl>
    <Point>
        <altitudeMode>absolute</altitudeMode>
        <coordinates> -117.8200866667,35.3493900000,3072.0792000000 </coordinates>
    </Point>
  </Placemark>
</Document>
</kml>

